House Number,Street Name,Community,Zip Code,Unit Type,Unit,Floor Type,Floor,Building Type,Building,DA/PSA,OVALS Address ID,Primary_Term_Address,FAC_ADDR,Working TN Status
301,ALABAMA AV,BOGALUSA,70427,,,,,,,110403,0000152C3M,R 310 MISSISSIPPI AV,301 ALABAMA AV,
305,ALABAMA AV,BOGALUSA,70427,,,,,,,110403,00001523R3,R 310 MISSISSIPPI AV,305 ALABAMA AV,
307,ALABAMA AV,BOGALUSA,70427,,,,,,,110403,0000152D3N,R 310 MISSISSIPPI AV,307 ALABAMA AV,
309,ALABAMA AV,BOGALUSA,70427,,,,,,,110403,0000152AE3,R 310 MISSISSIPPI AV,309 ALABAMA AV,
311,ALABAMA AV,BOGALUSA,70427,,,,,,,110403,00001522AA,R 310 MISSISSIPPI AV,311 ALABAMA AV,
313,ALABAMA AV,BOGALUSA,70427,,,,,,,110403,0000152B8S,R 310 MISSISSIPPI AV,313 ALABAMA AV,
315,ALABAMA AV,BOGALUSA,70427,,,,,,,110403,000015260W,R 310 MISSISSIPPI AV,315 ALABAMA AV,
317,ALABAMA AV,BOGALUSA,70427,,,,,,,110403,0000151Z8B,R 320 MISSISSIPPI AV,317 ALABAMA AV,
319,ALABAMA AV,BOGALUSA,70427,,,,,,,110403,0000152C3O,R 320 MISSISSIPPI AV,319 ALABAMA AV,
321,ALABAMA AV,BOGALUSA,70427,,,,,,,110403,0000152790,R 320 MISSISSIPPI AV,321 ALABAMA AV,
323,ALABAMA AV,BOGALUSA,70427,,,,,,,110403,0000151XSX,R 320 MISSISSIPPI AV,323 ALABAMA AV,
325,ALABAMA AV,BOGALUSA,70427,,,,,,,110403,0000152CKM,R 320 MISSISSIPPI AV,325 ALABAMA AV,
327,ALABAMA AV,BOGALUSA,70427,,,,,,,110403,000015204J,R 320 MISSISSIPPI AV,327 ALABAMA AV,
329,ALABAMA AV,BOGALUSA,70427,,,,,,,110403,00001523WB,R 320 MISSISSIPPI AV,329 ALABAMA AV,
314,ATLANTA ST,BOGALUSA,70427,,,,,,,110403,00001527V7,R 321 MONTGOMERY ST,314 ATLANTA ST,
316,ATLANTA ST,BOGALUSA,70427,,,,,,,110403,0000152BJ1,R 321 MONTGOMERY ST,316 ATLANTA ST,
318,ATLANTA ST,BOGALUSA,70427,,,,,,,110403,00001527VQ,R 321 MONTGOMERY ST,318 ATLANTA ST,
320,ATLANTA ST,BOGALUSA,70427,,,,,,,110403,00001520NB,R 321 MONTGOMERY ST,320 ATLANTA ST,
324,ATLANTA ST,BOGALUSA,70427,,,,,,,110403,00001526U1,R 336 ATLANTA ST,324 ATLANTA ST,
325,ATLANTA ST,BOGALUSA,70427,,,,,,,110403,0000152CII,R 422 MISSISSIPPI AV,325 ATLANTA ST,
328,ATLANTA ST,BOGALUSA,70427,,,,,,,110403,00001526OB,R 336 ATLANTA ST,328 ATLANTA ST,
336,ATLANTA ST,BOGALUSA,70427,,,,,,,110403,00001520XQ,R 336 ATLANTA ST,336 ATLANTA ST,
401,ATLANTA ST,BOGALUSA,70427,,,,,,,110403,00001526RT,R 415 ATLANTA ST,401 ATLANTA ST,
403,ATLANTA ST,BOGALUSA,70427,,,,,,,110403,0000152BNT,R 415 ATLANTA ST,403 ATLANTA ST,
405,ATLANTA ST,BOGALUSA,70427,,,,,,,110403,0000152D43,R 415 ATLANTA ST,405 ATLANTA ST,
407,ATLANTA ST,BOGALUSA,70427,,,,,,,110403,00001524LI,R 415 ATLANTA ST,407 ATLANTA ST,
409,ATLANTA ST,BOGALUSA,70427,,,,,,,110403,00001527WA,R 415 ATLANTA ST,409 ATLANTA ST,
411,ATLANTA ST,BOGALUSA,70427,,,,,,,110403,00001527VJ,R 415 ATLANTA ST,411 ATLANTA ST,
413,ATLANTA ST,BOGALUSA,70427,,,,,,,110403,0000152C3X,R 415 ATLANTA ST,413 ATLANTA ST,
415,ATLANTA ST,BOGALUSA,70427,,,,,,,110403,000015269X,R 415 ATLANTA ST,415 ATLANTA ST,
417,ATLANTA ST,BOGALUSA,70427,,,,,,,110403,0000152C3Q,R 415 ATLANTA ST,417 ATLANTA ST,
419,ATLANTA ST,BOGALUSA,70427,,,,,,,110403,0000152BYQ,R 415 ATLANTA ST,419 ATLANTA ST,
421,ATLANTA ST,BOGALUSA,70427,,,,,,,110403,0000152C7L,R 415 ATLANTA ST,421 ATLANTA ST,
431,ATLANTA ST,BOGALUSA,70427,,,,,,,110403,00001523SM,OPP 431-1 ATLANTA ST,431 ATLANTA ST,
621,CAROLINA AV,BOGALUSA,70427,,,,,,,110403,00001529IH,R 630 LOUISIANA AV,621 CAROLINA AV,
623,CAROLINA AV,BOGALUSA,70427,,,,,,,110403,00001527VL,R 630 LOUISIANA AV,623 CAROLINA AV,
626,CAROLINA AV,BOGALUSA,70427,,,,,,,110403,00001522A8,I 626 CAROLINA AV,626 CAROLINA AV,Y
628,CAROLINA AV,BOGALUSA,70427,,,,,,,110403,00001527RR,R 704 LOUISIANA AV,628 CAROLINA AV,
701,CAROLINA AV,BOGALUSA,70427,,,,,BLDG,REAR HOUSE,110403,000105M6BY,R 704 LOUISIANA AV,701 CAROLINA AV     BLDG REAR HOUSE,
701,CAROLINA AV,BOGALUSA,70427,,,,,,,110403,00001525QV,R 704 LOUISIANA AV,701 CAROLINA AV,Y
701,CAROLINA AV,BOGALUSA,70427,,,,,,,110403,00001525QV,R 704 LOUISIANA AV,701 CAROLINA AV,
702,CAROLINA AV,BOGALUSA,70427,,,,,,,110403,0000152422,R 436 RICHMOND ST,702 CAROLINA AV,
703,CAROLINA AV,BOGALUSA,70427,,,,,,,110403,0000152668,R 704 LOUISIANA AV,703 CAROLINA AV,
707,CAROLINA AV,BOGALUSA,70427,UNIT,REAR HOUSE,,,,,110403,00010DSHI3,R 704 LOUISIANA AV,707 CAROLINA AV UNIT REAR HOUSE,
707,CAROLINA AV,BOGALUSA,70427,,,,,BLDG,REAR HOUSE,110403,00010DSBI7,R 704 LOUISIANA AV,707 CAROLINA AV     BLDG REAR HOUSE,
708,CAROLINA AV,BOGALUSA,70427,,,,,,,110403,00001528H2,R 436 RICHMOND ST,708 CAROLINA AV,
712,CAROLINA AV,BOGALUSA,70427,,,,,,,110403,0000152BDA,R 436 RICHMOND ST,712 CAROLINA AV,
713,CAROLINA AV,BOGALUSA,70427,,,,,,,110403,0000152667,R 713 CAROLINA AV,713 CAROLINA AV,
713-B,CAROLINA AV,BOGALUSA,70427,,,,,,,110403,0000152BO0,R 713 CAROLINA AV,713-B CAROLINA AV,
715,CAROLINA AV,BOGALUSA,70427,,,,,,,110403,00001529WF,R 713 CAROLINA AV,715 CAROLINA AV,
717,CAROLINA AV,BOGALUSA,70427,,,,,,,110403,00001529WR,R 713 CAROLINA AV,717 CAROLINA AV,
718,CAROLINA AV,BOGALUSA,70427,,,,,,,110403,0000151XU3,R 436 RICHMOND ST,718 CAROLINA AV,
719,CAROLINA AV,BOGALUSA,70427,,,,,,,110403,0000151Y7I,R 713 CAROLINA AV,719 CAROLINA AV,
721,CAROLINA AV,BOGALUSA,70427,,,,,,,110403,0000151ZRT,R 713 CAROLINA AV,721 CAROLINA AV,
722,CAROLINA AV,BOGALUSA,70427,,,,,,,110403,0000152B4W,R 726 CAROLINA AV,722 CAROLINA AV,
723,CAROLINA AV,BOGALUSA,70427,,,,,,,110403,00001524LC,R 725 CAROLINA AV,723 CAROLINA AV,
725,CAROLINA AV,BOGALUSA,70427,,,,,,,110403,00001527VG,R 725 CAROLINA AV,725 CAROLINA AV,
726,CAROLINA AV,BOGALUSA,70427,,,,,,,110403,0000152C0E,R 726 CAROLINA AV,726 CAROLINA AV,
727,CAROLINA AV,BOGALUSA,70427,,,,,,,110403,00001527WC,R 725 CAROLINA AV,727 CAROLINA AV,
729,CAROLINA AV,BOGALUSA,70427,,,,,,,110403,0000151YNP,R 725 CAROLINA AV,729 CAROLINA AV,
730,CAROLINA AV,BOGALUSA,70427,,,,,,,110403,00001523OH,R 726 CAROLINA AV,730 CAROLINA AV,
731,CAROLINA AV,BOGALUSA,70427,,,,,,,110403,00001520UI,R 725 CAROLINA AV,731 CAROLINA AV,
802,CAROLINA AV,BOGALUSA,70427,,,,,,,110403,000015298G,S 426 ORLEANS ST,802 CAROLINA AV,
803,CAROLINA AV,BOGALUSA,70427,,,,,,,110403,00001524G5,R 803 CAROLINA AV,803 CAROLINA AV,
808,CAROLINA AV,BOGALUSA,70427,APT,B,,,,,110403,0000152CPO,R 808B CAROLINA AV,808 CAROLINA AV APT B,
808,CAROLINA AV,BOGALUSA,70427,,,,,,,110403,0000152CXL,R 808 CAROLINA AV,808 CAROLINA AV,
809,CAROLINA AV,BOGALUSA,70427,,,,,,,110403,00001523XF,R 803 CAROLINA AV,809 CAROLINA AV,
813,CAROLINA AV,BOGALUSA,70427,,,,,,,110403,00001526A1,R 803 CAROLINA AV,813 CAROLINA AV,
818,CAROLINA AV,BOGALUSA,70427,,,,,,,110403,0000151YYQ,R 808B CAROLINA AV,818 CAROLINA AV,
820,CAROLINA AV,BOGALUSA,70427,,,,,,,110403,000015289O,R 826 CAROLINA AV,820 CAROLINA AV,
821,CAROLINA AV,BOGALUSA,70427,,,,,,,110403,0000151ZKQ,R 821 CAROLINA AV,821 CAROLINA AV,
825,CAROLINA AV,BOGALUSA,70427,,,,,,,110403,00001528ZY,R 821 CAROLINA AV,825 CAROLINA AV,
826,CAROLINA AV,BOGALUSA,70427,,,,,,,110403,0000152DRL,R 826 CAROLINA AV,826 CAROLINA AV,
831,CAROLINA AV,BOGALUSA,70427,,,,,,,110403,0000152DQR,R 803 CAROLINA AV,831 CAROLINA AV,
902,CAROLINA AV,BOGALUSA,70427,APT,A,,,,,110403,0000152B1M,S 902 CAROLINA AV,902 CAROLINA AV APT A,
910,CAROLINA AV,BOGALUSA,70427,,,,,,,110403,0000152BDQ,R 910 CAROLINA AV,910 CAROLINA AV,
911,CAROLINA AV,BOGALUSA,70427,,,,,,,110403,00001524V8,R 911 CAROLINA AV,911 CAROLINA AV,
913,CAROLINA AV,BOGALUSA,70427,,,,,,,110403,0000152CK7,R 911 CAROLINA AV,913 CAROLINA AV,
919,CAROLINA AV,BOGALUSA,70427,,,,,,,110403,0000152ATU,R 911 CAROLINA AV,919 CAROLINA AV,
921,CAROLINA AV,BOGALUSA,70427,,,,,,,110403,0000151ZP8,R 911 CAROLINA AV,921 CAROLINA AV,
922,CAROLINA AV,BOGALUSA,70427,,,,,,,110403,00001528VI,OPP 431 ATLANTA ST,922 CAROLINA AV,
923,CAROLINA AV,BOGALUSA,70427,,,,,,,110403,000015209K,R 911 CAROLINA AV,923 CAROLINA AV,
925,CAROLINA AV,BOGALUSA,70427,,,,,,,110403,00001527O3,R 911 CAROLINA AV,925 CAROLINA AV,
927,CAROLINA AV,BOGALUSA,70427,,,,,,,110403,0000151XP1,R 911 CAROLINA AV,927 CAROLINA AV,
929,CAROLINA AV,BOGALUSA,70427,,,,,,,110403,000015272Z,R 911 CAROLINA AV,929 CAROLINA AV,
401,GEORGIA AV,BOGALUSA,70427,,,,,,,110403,00001524L7,S 409 GEORGIA AV,401 GEORGIA AV,
403,GEORGIA AV,BOGALUSA,70427,,,,,,,110403,0000152DPQ,S 409 GEORGIA AV,403 GEORGIA AV,
405,GEORGIA AV,BOGALUSA,70427,,,,,,,110403,0000152AE2,S 409 GEORGIA AV,405 GEORGIA AV,
407,GEORGIA AV,BOGALUSA,70427,,,,,,,110403,00001528UN,S 409 GEORGIA AV,407 GEORGIA AV,
409,GEORGIA AV,BOGALUSA,70427,,,,,,,110403,0000152DEI,S 409 GEORGIA AV,409 GEORGIA AV,
411,GEORGIA AV,BOGALUSA,70427,,,,,,,110403,0000152418,S 409 GEORGIA AV,411 GEORGIA AV,
413,GEORGIA AV,BOGALUSA,70427,,,,,,,110403,00001524LN,S 409 GEORGIA AV,413 GEORGIA AV,
415,GEORGIA AV,BOGALUSA,70427,,,,,,,110403,00001525FV,S 409 GEORGIA AV,415 GEORGIA AV,
417,GEORGIA AV,BOGALUSA,70427,,,,,,,110403,0000152A43,S 409 GEORGIA AV,417 GEORGIA AV,
419,GEORGIA AV,BOGALUSA,70427,,,,,,,110403,0000152CN6,S 409 GEORGIA AV,419 GEORGIA AV,
421,GEORGIA AV,BOGALUSA,70427,,,,,,,110403,00001529JW,S 409 GEORGIA AV,421 GEORGIA AV,Y
421,GEORGIA AV,BOGALUSA,70427,,,FLR,LOWER,,,110403,0000152D42,R 422 MISSISSIPPI AV,421 GEORGIA AV   FLR LOWER,
421-B,GEORGIA AV,BOGALUSA,70427,,,,,,,110403,0000152BNI,R 422 MISSISSIPPI AV,421-B GEORGIA AV,
423,GEORGIA AV,BOGALUSA,70427,,,,,,,110403,0000152AGR,S 409 GEORGIA AV,423 GEORGIA AV,
425,GEORGIA AV,BOGALUSA,70427,,,,,,,110403,0000152234,S 409 GEORGIA AV,425 GEORGIA AV,
427,GEORGIA AV,BOGALUSA,70427,,,,,,,110403,00001521SE,S 409 GEORGIA AV,427 GEORGIA AV,
429,GEORGIA AV,BOGALUSA,70427,,,,,,,110403,00001528UK,S 409 GEORGIA AV,429 GEORGIA AV,
431,GEORGIA AV,BOGALUSA,70427,,,,,,,110403,000015267R,S 409 GEORGIA AV,431 GEORGIA AV,
431-B,GEORGIA AV,BOGALUSA,70427,,,,,,,110403,00001522J2,S 409 GEORGIA AV,431-B GEORGIA AV,
433,GEORGIA AV,BOGALUSA,70427,,,,,,,110403,00001521SM,S 409 GEORGIA AV,433 GEORGIA AV,
501,GEORGIA AV,BOGALUSA,70427,,,,,,,110403,0000152DPR,R 321 MONTGOMERY ST,501 GEORGIA AV,
503,GEORGIA AV,BOGALUSA,70427,,,,,,,110403,00001526A6,R 321 MONTGOMERY ST,503 GEORGIA AV,
505,GEORGIA AV,BOGALUSA,70427,,,,,,,110403,000015257B,R 321 MONTGOMERY ST,505 GEORGIA AV,
507,GEORGIA AV,BOGALUSA,70427,,,,,,,110403,0000152D3Q,R 321 MONTGOMERY ST,507 GEORGIA AV,
509,GEORGIA AV,BOGALUSA,70427,,,,,,,110403,00001527V5,R 321 MONTGOMERY ST,509 GEORGIA AV,
511,GEORGIA AV,BOGALUSA,70427,,,,,,,110403,0000152B5J,R 321 MONTGOMERY ST,511 GEORGIA AV,
513,GEORGIA AV,BOGALUSA,70427,,,,,,,110403,00001527VO,R 321 MONTGOMERY ST,513 GEORGIA AV,
515,GEORGIA AV,BOGALUSA,70427,,,,,,,110403,0000152C3J,R 321 MONTGOMERY ST,515 GEORGIA AV,
518,GEORGIA AV,BOGALUSA,70427,,,,,,,110403,0000151YRT,F 244 MONTGOMERY ST,518 GEORGIA AV,
522,GEORGIA AV,BOGALUSA,70427,,,,,,,110403,000015226E,F 244 MONTGOMERY ST,522 GEORGIA AV,
523,GEORGIA AV,BOGALUSA,70427,,,,,,,110403,000015238P,R 321 MONTGOMERY ST,523 GEORGIA AV,
524,GEORGIA AV,BOGALUSA,70427,,,,,,,110403,00001523JG,F 244 MONTGOMERY ST,524 GEORGIA AV,
601,GEORGIA AV,BOGALUSA,70427,,,,,,,110403,0000152506,F 601 GEORGIA AV,601 GEORGIA AV,
607,GEORGIA AV,BOGALUSA,70427,,,,,,,110403,0000152C48,F 601 GEORGIA AV,607 GEORGIA AV,
613,GEORGIA AV,BOGALUSA,70427,,,,,,,110403,0000152669,F 613 GEORGIA AV,613 GEORGIA AV,
614,GEORGIA AV,BOGALUSA,70427,,,,,,,110403,00001524BH,F 613 GEORGIA AV,614 GEORGIA AV,
616,GEORGIA AV,BOGALUSA,70427,,,,,,,110403,00001527W5,F 613 GEORGIA AV,616 GEORGIA AV,
618,GEORGIA AV,BOGALUSA,70427,,,,,,,110403,0000152D47,F 613 GEORGIA AV,618 GEORGIA AV,
620,GEORGIA AV,BOGALUSA,70427,APT,A,,,,,110403,0000151ZZT,F 613 GEORGIA AV,620 GEORGIA AV APT A,
620,GEORGIA AV,BOGALUSA,70427,,,,,,,110403,0000151WTP,F 613 GEORGIA AV,620 GEORGIA AV,
621,GEORGIA AV,BOGALUSA,70427,APT,A,,,,,110403,00001526JM,R 612 MISSISSIPPI AV,621 GEORGIA AV APT A,
621,GEORGIA AV,BOGALUSA,70427,APT,B,,,,,110403,0000152002,R 612 MISSISSIPPI AV,621 GEORGIA AV APT B,
621-B,GEORGIA AV,BOGALUSA,70427,,,,,,,110403,0000152002,R 612 MISSISSIPPI AV,621-B GEORGIA AV,
722,GEORGIA AV,BOGALUSA,70427,,,,,,,110403,00001521I9,R 314 RICHMOND ST,722 GEORGIA AV,
338,JACKSON ST,BOGALUSA,70427,,,,,,,110403,Not SAG Valid,R 310 MISSISSIPPI AV,338 JACKSON ST,
346,JACKSON ST,BOGALUSA,70427,,,,,,,110403,Not SAG Valid,S 348 JACKSON ST,346 JACKSON ST,
348,JACKSON ST,BOGALUSA,70427,RM,106,,,,,110403,Not SAG Valid,304M MISSISSIPPI AV,348 JACKSON ST RM 106,
348,JACKSON ST,BOGALUSA,70427,UNIT,PRSH MGR,,,,,110403,Not SAG Valid,304M MISSISSIPPI AV,348 JACKSON ST UNIT PRSH MGR,
411,JACKSON ST,BOGALUSA,70427,,,,,,,110403,Not SAG Valid,S 348 JACKSON ST,411 JACKSON ST,
414,JACKSON ST,BOGALUSA,70427,,,,,,,110403,00010E1NJV,S 348 JACKSON ST,414 JACKSON ST,
225,KENTUCKY AV, ,SUIT,A,,,,,110403,Not SAG Valid,F 225 MONTGOMERY ST,225 KENTUCKY AV SUIT A,,
437,KENTUCKY AV,BOGALUSA,70427,,,,,,,110403,00001526R6,F 225 MONTGOMERY ST,437 KENTUCKY AV,
504,KENTUCKY AV,BOGALUSA,70427,SUIT,A,,,,,110403,00010LK01N,S 510 KENTUCKY AV,504 KENTUCKY AV SUIT A,
504,KENTUCKY AV,BOGALUSA,70427,,,,,,,110403,0000152CHL,S 510 KENTUCKY AV,504 KENTUCKY AV,
510,KENTUCKY AV,BOGALUSA,70427,,,,,,,110403,00001526ZP,S 510 KENTUCKY AV,510 KENTUCKY AV,
515,KENTUCKY AV,BOGALUSA,70427,,,,,,,110403,0000152D69,F 511 KENTUCKY AV,515 KENTUCKY AV,
516,KENTUCKY AV,BOGALUSA,70427,,,,,,,110403,0000152BIX,F 518 KENTUCKY AV,516 KENTUCKY AV,
518,KENTUCKY AV,BOGALUSA,70427,,,,,,,110403,0000152CJL,F 518 KENTUCKY AV,518 KENTUCKY AV,
519,KENTUCKY AV,BOGALUSA,70427,,,,,,,110403,000015268W,F 519 KENTUCKY AV,519 KENTUCKY AV,
520,KENTUCKY AV,BOGALUSA,70427,,,,,,,110403,0000152C40,F 518 KENTUCKY AV,520 KENTUCKY AV,
522,KENTUCKY AV,BOGALUSA,70427,,,,,,,110403,00001523YK,F 518 KENTUCKY AV,522 KENTUCKY AV,
525,KENTUCKY AV,BOGALUSA,70427,,,,,,,110403,0000151YKB,F 529 KENTUCKY AV,525 KENTUCKY AV,
526,KENTUCKY AV,BOGALUSA,70427,,,,,,,110403,000015274X,S 526 KENTUCKY AV,526 KENTUCKY AV,
529,KENTUCKY AV,BOGALUSA,70427,,,,,,,110403,0000152ABO,F 529 KENTUCKY AV,529 KENTUCKY AV,
530,KENTUCKY AV,BOGALUSA,70427,,,,,,,110403,00001521U7,S 526 KENTUCKY AV,530 KENTUCKY AV,
535,KENTUCKY AV,BOGALUSA,70427,,,,,,,110403,00001524I5,F 225 MONTGOMERY ST,535 KENTUCKY AV,
536,KENTUCKY AV,BOGALUSA,70427,,,,,,,110403,00001528BM,F 225 MONTGOMERY ST,536 KENTUCKY AV,
537,KENTUCKY AV,BOGALUSA,70427,SUIT,A,,,,,110403,0000151Y68,F 225 MONTGOMERY ST,537 KENTUCKY AV SUIT A,
537,KENTUCKY AV,BOGALUSA,70427,SUIT,B,,,,,110403,0000151YAS,F 225 MONTGOMERY ST,537 KENTUCKY AV SUIT B,
537,KENTUCKY AV,BOGALUSA,70427,UNIT,FAMILY CTR,,,,,110403,0000152C0Z,OPP 431 ATLANTA ST,537 KENTUCKY AV UNIT FAMILY CTR,
538,KENTUCKY AV,BOGALUSA,70427,,,,,,,110403,0000152BC6,F 225 MONTGOMERY ST,538 KENTUCKY AV,
540,KENTUCKY AV,BOGALUSA,70427,,,,,,,110403,0000151Y89,F 225 MONTGOMERY ST,540 KENTUCKY AV,
301,LEXINGTON ST,BOGALUSA,70427,,,,,,,110403,00011EOIGD,R 320 MISSISSIPPI AV,301 LEXINGTON ST,
316,LEXINGTON ST,BOGALUSA,70427,,,,,,,110403,00001527V9,S 409 GEORGIA AV,316 LEXINGTON ST,
318,LEXINGTON ST,BOGALUSA,70427,APT,B,,,,,110403,000015266P,R 422 MISSISSIPPI AV,318 LEXINGTON ST APT B,
318,LEXINGTON ST,BOGALUSA,70427,,,,,,,110403,00001526RR,S 409 GEORGIA AV,318 LEXINGTON ST,
320,LEXINGTON ST,BOGALUSA,70427,,,,,,,110403,00001525N3,S 409 GEORGIA AV,320 LEXINGTON ST,
321,LEXINGTON ST,BOGALUSA,70427,,,,,,,110403,000015266K,R 408 MISSISSIPPI AV,321 LEXINGTON ST,
322,LEXINGTON ST,BOGALUSA,70427,,,,,,,110403,000015268L,S 409 GEORGIA AV,322 LEXINGTON ST,
323,LEXINGTON ST,BOGALUSA,70427,,,,,,,110403,000015204U,R 408 MISSISSIPPI AV,323 LEXINGTON ST,
324,LEXINGTON ST,BOGALUSA,70427,,,,,,,110403,0000152AOO,R 408 MISSISSIPPI AV,324 LEXINGTON ST,
325,LEXINGTON ST,BOGALUSA,70427,,,,,,,110403,00001524L6,R 408 MISSISSIPPI AV,325 LEXINGTON ST,
326,LEXINGTON ST,BOGALUSA,70427,,,,,,,110403,0000152BNF,R 408 MISSISSIPPI AV,326 LEXINGTON ST,
327,LEXINGTON ST,BOGALUSA,70427,,,,,,,110403,0000151Y7V,R 408 MISSISSIPPI AV,327 LEXINGTON ST,
328,LEXINGTON ST,BOGALUSA,70427,,,,,,,110403,00001523CV,R 408 MISSISSIPPI AV,328 LEXINGTON ST,Y
329,LEXINGTON ST,BOGALUSA,70427,,,,,,,110403,0000152E1P,R 408 MISSISSIPPI AV,329 LEXINGTON ST,
330,LEXINGTON ST,BOGALUSA,70427,,,,,,,110403,00001529WD,R 408 MISSISSIPPI AV,330 LEXINGTON ST,
331,LEXINGTON ST,BOGALUSA,70427,,,,,,,110403,000015271C,R 408 MISSISSIPPI AV,331 LEXINGTON ST,
332,LEXINGTON ST,BOGALUSA,70427,,,,,,,110403,0000152116,R 408 MISSISSIPPI AV,332 LEXINGTON ST,
333,LEXINGTON ST,BOGALUSA,70427,,,,,,,110403,000015282E,R 408 MISSISSIPPI AV,333 LEXINGTON ST,
334,LEXINGTON ST,BOGALUSA,70427,,,,,,,110403,0000152AW8,S 409 GEORGIA AV,334 LEXINGTON ST,
335,LEXINGTON ST,BOGALUSA,70427,,,,,,,110403,00001528BQ,R 408 MISSISSIPPI AV,335 LEXINGTON ST,
336,LEXINGTON ST,BOGALUSA,70427,,,,,,,110403,00001526JL,R 408 MISSISSIPPI AV,336 LEXINGTON ST,
337,LEXINGTON ST,BOGALUSA,70427,,,,,,,110403,00001528WX,R 408 MISSISSIPPI AV,337 LEXINGTON ST,
338,LEXINGTON ST,BOGALUSA,70427,,,,,,,110403,00001525VR,R 408 MISSISSIPPI AV,338 LEXINGTON ST,
339,LEXINGTON ST,BOGALUSA,70427,,,,,,,110403,00001527DT,R 408 MISSISSIPPI AV,339 LEXINGTON ST,
400,LEXINGTON ST,BOGALUSA,70427,,,,,,,110403,00001527V8,R 403 MISSISSIPPI AV,400 LEXINGTON ST,
401,LEXINGTON ST,BOGALUSA,70427,,,,,,,110403,00001525N5,R 403 MISSISSIPPI AV,401 LEXINGTON ST,
402,LEXINGTON ST,BOGALUSA,70427,,,,,,,110403,0000152791,R 403 MISSISSIPPI AV,402 LEXINGTON ST,
403,LEXINGTON ST,BOGALUSA,70427,,,,,,,110403,0000152969,R 403 MISSISSIPPI AV,403 LEXINGTON ST,
404,LEXINGTON ST,BOGALUSA,70427,,,,,,,110403,0000152ANH,R 403 MISSISSIPPI AV,404 LEXINGTON ST,
405,LEXINGTON ST,BOGALUSA,70427,,,,,,,110403,000015232Z,R 403 MISSISSIPPI AV,405 LEXINGTON ST,
406,LEXINGTON ST,BOGALUSA,70427,,,,,,,110403,0000152CGP,R 403 MISSISSIPPI AV,406 LEXINGTON ST,
407,LEXINGTON ST,BOGALUSA,70427,,,,,,,110403,0000151XVI,R 403 MISSISSIPPI AV,407 LEXINGTON ST,
408,LEXINGTON ST,BOGALUSA,70427,,,,,,,110403,0000152655,R 403 MISSISSIPPI AV,408 LEXINGTON ST,
409,LEXINGTON ST,BOGALUSA,70427,,,,,,,110403,000015295X,R 403 MISSISSIPPI AV,409 LEXINGTON ST,
410,LEXINGTON ST,BOGALUSA,70427,,,,,,,110403,0000152466,R 403 MISSISSIPPI AV,410 LEXINGTON ST,
411,LEXINGTON ST,BOGALUSA,70427,,,,,,,110403,000015261H,R 403 MISSISSIPPI AV,411 LEXINGTON ST,
412,LEXINGTON ST,BOGALUSA,70427,,,,,,,110403,00001529B5,R 400 LOUISIANA AV,412 LEXINGTON ST,
413,LEXINGTON ST,BOGALUSA,70427,,,,,,,110403,00001527VN,R 400 LOUISIANA AV,413 LEXINGTON ST,
414,LEXINGTON ST,BOGALUSA,70427,,,,,,,110403,0000152CVY,R 400 LOUISIANA AV,414 LEXINGTON ST,
415,LEXINGTON ST,BOGALUSA,70427,,,,,,,110403,0000152DPT,R 400 LOUISIANA AV,415 LEXINGTON ST,
416,LEXINGTON ST,BOGALUSA,70427,,,,,,,110403,00001527WG,R 400 LOUISIANA AV,416 LEXINGTON ST,
417,LEXINGTON ST,BOGALUSA,70427,,,,,,,110403,00001527VA,R 400 LOUISIANA AV,417 LEXINGTON ST,
418,LEXINGTON ST,BOGALUSA,70427,,,,,,,110403,00001524L4,R 400 LOUISIANA AV,418 LEXINGTON ST,
419,LEXINGTON ST,BOGALUSA,70427,,,,,,,110403,00001524L5,R 400 LOUISIANA AV,419 LEXINGTON ST,
420,LEXINGTON ST,BOGALUSA,70427,,,,,,,110403,0000152D3T,R 400 LOUISIANA AV,420 LEXINGTON ST,
421,LEXINGTON ST,BOGALUSA,70427,,,,,,,110403,0000152BIZ,R 400 LOUISIANA AV,421 LEXINGTON ST,
220,LOUISIANA AV,BOGALUSA,70427,,,,,,,110403,000015281H,S 348 JACKSON ST,220 LOUISIANA AV,
224,LOUISIANA AV,BOGALUSA,70427,SUIT,A,,,,,110403,00001527WB,R 224 LOUISIANA AV,224 LOUISIANA AV SUIT A,
224,LOUISIANA AV,BOGALUSA,70427,SUIT,B,,,,,110403,00001527VC,R 224 LOUISIANA AV,224 LOUISIANA AV SUIT B,
224,LOUISIANA AV,BOGALUSA,70427,SUIT,C,,,,,110403,0000152BIY,R 224 LOUISIANA AV,224 LOUISIANA AV SUIT C,
224,LOUISIANA AV,BOGALUSA,70427,,,,,,,110403,00001528EZ,R 224 LOUISIANA AV,224 LOUISIANA AV,
302,LOUISIANA AV,BOGALUSA,70427,,,,,,,110403,000015250E,S 348 JACKSON ST,302 LOUISIANA AV,
302,LOUISIANA AV,BOGALUSA,70427,,,,,,,110403,000015250E,S 348 JACKSON ST,302 LOUISIANA AV,Y
328,LOUISIANA AV,BOGALUSA,70427,,,,,,,110403,0000152BEU,R 400 LOUISIANA AV,328 LOUISIANA AV,
400,LOUISIANA AV,BOGALUSA,70427,,,,,,,110403,00001529DW,R 400 LOUISIANA AV,400 LOUISIANA AV,
402,LOUISIANA AV,BOGALUSA,70427,,,,,,,110403,000015266H,R 413 MISSISSIPPI AV,402 LOUISIANA AV,
404,LOUISIANA AV,BOGALUSA,70427,,,,,,,110403,000015282I,R 413 MISSISSIPPI AV,404 LOUISIANA AV,
406,LOUISIANA AV,BOGALUSA,70427,,,,,,,110403,00001527VT,R 413 MISSISSIPPI AV,406 LOUISIANA AV,
408,LOUISIANA AV,BOGALUSA,70427,,,,,,,110403,0000152BNM,R 413 MISSISSIPPI AV,408 LOUISIANA AV,
410,LOUISIANA AV,BOGALUSA,70427,,,,,,,110403,0000152AJ0,R 413 MISSISSIPPI AV,410 LOUISIANA AV,
412,LOUISIANA AV,BOGALUSA,70427,,,,,,,110403,00001528MD,R 413 MISSISSIPPI AV,412 LOUISIANA AV,
414,LOUISIANA AV,BOGALUSA,70427,,,,,,,110403,0000151YI4,R 413 MISSISSIPPI AV,414 LOUISIANA AV,
416,LOUISIANA AV,BOGALUSA,70427,,,,,,,110403,000015231D,R 413 MISSISSIPPI AV,416 LOUISIANA AV,
418,LOUISIANA AV,BOGALUSA,70427,,,,,,,110403,00001522D2,R 413 MISSISSIPPI AV,418 LOUISIANA AV,
420,LOUISIANA AV,BOGALUSA,70427,,,,,,,110403,00001520Z8,R 415 ATLANTA ST,420 LOUISIANA AV,
428,LOUISIANA AV,BOGALUSA,70427,,,,,,,110403,0000152D0U,OPP 431-1 ATLANTA ST,428 LOUISIANA AV,
530,LOUISIANA AV,BOGALUSA,70427,,,,,,,110403,00001528C9,R 606 LOUISIANA AV,530 LOUISIANA AV,
606,LOUISIANA AV,BOGALUSA,70427,,,,,,,110403,000015292V,R 616 LOUISIANA AV,606 LOUISIANA AV,
616,LOUISIANA AV,BOGALUSA,70427,,,,,,,110403,0000152DWB,R 616 LOUISIANA AV,616 LOUISIANA AV,
630,LOUISIANA AV,BOGALUSA,70427,,,,,,,110403,0000151YRH,R 704 LOUISIANA AV,630 LOUISIANA AV,
700,LOUISIANA AV,BOGALUSA,70427,,,,,,,110403,0000152B1O,R 704 LOUISIANA AV,700 LOUISIANA AV,
702,LOUISIANA AV,BOGALUSA,70427,,,,,,,110403,0000152C3I,R 704 LOUISIANA AV,702 LOUISIANA AV,
704,LOUISIANA AV,BOGALUSA,70427,,,,,,,110403,00001529JR,R 704 LOUISIANA AV,704 LOUISIANA AV,
704,LOUISIANA AV,BOGALUSA,70427,,,FLR,1ST,BLDG,MAIN,110403,00001528ZP,R 704 LOUISIANA AV,704 LOUISIANA AV   FLR 1ST BLDG MAIN,
712,LOUISIANA AV,BOGALUSA,70427,,,,,,,110403,00001521TH,R 712 LOUISIANA AV,712 LOUISIANA AV,
722,LOUISIANA AV,BOGALUSA,70427,APT,APT,,,,,110403,0000152BEH,R 725 CAROLINA AV,722 LOUISIANA AV APT APT,
722,LOUISIANA AV,BOGALUSA,70427,,,,,,,110403,0000152C46,R 725 CAROLINA AV,722 LOUISIANA AV,
724,LOUISIANA AV,BOGALUSA,70427,,,,,,,110403,0000152DPS,R 725 CAROLINA AV,724 LOUISIANA AV,
726,LOUISIANA AV,BOGALUSA,70427,,,,,,,110403,00001529N1,R 725 CAROLINA AV,726 LOUISIANA AV,
728,LOUISIANA AV,BOGALUSA,70427,,,,,,,110403,00001527KI,R 725 CAROLINA AV,728 LOUISIANA AV,
730,LOUISIANA AV,BOGALUSA,70427,,,,,,,110403,0000152C7R,R 725 CAROLINA AV,730 LOUISIANA AV,
802,LOUISIANA AV,BOGALUSA,70427,,,,,,,110403,0000151Z4Y,R 803 CAROLINA AV,802 LOUISIANA AV,
812,LOUISIANA AV,BOGALUSA,70427,,,,,,,110403,00001524RW,R 821 CAROLINA AV,812 LOUISIANA AV,
824,LOUISIANA AV,BOGALUSA,70427,RM,TELCO,FLR,1,,,110403,0000151XR6,R 821 CAROLINA AV,824 LOUISIANA AV RM TELCO FLR 1,
824,LOUISIANA AV,BOGALUSA,70427,,,,,,,110403,00001524MS,R 911 CAROLINA AV,824 LOUISIANA AV,
100,M J ISRAEL DR,BOGALUSA,70427,UNIT,INDUSTRIAL,,,,,110403,00001527W3,R 612 MISSISSIPPI AV,100 M J ISRAEL DR UNIT INDUSTRIAL,
348,MASONIC DR,BOGALUSA,70427,UNIT,PRSH MGR,FLR,1,,,110403,00001528VP,304M MISSISSIPPI AV,348 MASONIC DR UNIT PRSH MGR FLR 1,
348,MASONIC DR,BOGALUSA,70427,,,,,,,110403,00001524CB,304M MISSISSIPPI AV,348 MASONIC DR,
348,MASONIC DR,BOGALUSA,70427,,,FLR,1,,,110403,0000151ZS5,304M MISSISSIPPI AV,348 MASONIC DR   FLR 1,
400,MASONIC DR,BOGALUSA,70427,,,,,,,110403,0000151X9S,S 348 JACKSON ST,400 MASONIC DR,
405,MEMPHIS ST,BOGALUSA,70427,,,,,,,110403,00001527VM,304M MISSISSIPPI AV,405 MEMPHIS ST,
214,MISSISSIPPI AV,BOGALUSA,70427,APT,110,,,,,110403,00001526K1,R 224 LOUISIANA AV,214 MISSISSIPPI AV APT 110,
300,MISSISSIPPI AV,BOGALUSA,70427,,,,,,,110403,00001527W8,R 310 MISSISSIPPI AV,300 MISSISSIPPI AV,
301,MISSISSIPPI AV,BOGALUSA,70427,,,,,,,110403,0000152BNR,S 348 JACKSON ST,301 MISSISSIPPI AV,
302,MISSISSIPPI AV,BOGALUSA,70427,,,FLR,1,,,110403,0000151XBC,I 302 MISSISSIPPI AV,302 MISSISSIPPI AV   FLR 1,
302,MISSISSIPPI AV,BOGALUSA,70427,,,,,,,110403,0000151YK7,I 302 MISSISSIPPI AV,302 MISSISSIPPI AV,
303,MISSISSIPPI AV,BOGALUSA,70427,,,,,,,110403,000015266C,S 348 JACKSON ST,303 MISSISSIPPI AV,
304,MISSISSIPPI AV,BOGALUSA,70427,,,,,,,110403,000015282H,304M MISSISSIPPI AV,304 MISSISSIPPI AV,
305,MISSISSIPPI AV,BOGALUSA,70427,,,,,,,110403,00001524LF,S 348 JACKSON ST,305 MISSISSIPPI AV,
306,MISSISSIPPI AV,BOGALUSA,70427,,,,,,,110403,0000152C3U,304M MISSISSIPPI AV,306 MISSISSIPPI AV,
306,MISSISSIPPI AV,BOGALUSA,70427,,,FLR,1,,,110403,00001526WQ,304M MISSISSIPPI AV,306 MISSISSIPPI AV   FLR 1,
307,MISSISSIPPI AV,BOGALUSA,70427,,,,,,,110403,0000152C3C,S 348 JACKSON ST,307 MISSISSIPPI AV,
308,MISSISSIPPI AV,BOGALUSA,70427,,,,,,,110403,000015282J,R 310 MISSISSIPPI AV,308 MISSISSIPPI AV,
309,MISSISSIPPI AV,BOGALUSA,70427,,,,,,,110403,000015293K,S 348 JACKSON ST,309 MISSISSIPPI AV,
310,MISSISSIPPI AV,BOGALUSA,70427,,,,,,,110403,0000152677,F 320 MISSISSIPPI AV,310 MISSISSIPPI AV,
311,MISSISSIPPI AV,BOGALUSA,70427,,,,,,,110403,000015266E,F 320 MISSISSIPPI AV,311 MISSISSIPPI AV,
312,MISSISSIPPI AV,BOGALUSA,70427,,,,,,,110403,0000152DPP,R 310 MISSISSIPPI AV,312 MISSISSIPPI AV,
313,MISSISSIPPI AV,BOGALUSA,70427,,,,,,,110403,0000152D41,F 320 MISSISSIPPI AV,313 MISSISSIPPI AV,
314,MISSISSIPPI AV,BOGALUSA,70427,,,,,,,110403,00001520VM,R 310 MISSISSIPPI AV,314 MISSISSIPPI AV,
315,MISSISSIPPI AV,BOGALUSA,70427,,,,,,,110403,00001529D9,F 320 MISSISSIPPI AV,315 MISSISSIPPI AV,
316,MISSISSIPPI AV,BOGALUSA,70427,,,,,,,110403,00001529N0,R 320 MISSISSIPPI AV,316 MISSISSIPPI AV,
317,MISSISSIPPI AV,BOGALUSA,70427,,,,,,,110403,0000152BNQ,F 320 MISSISSIPPI AV,317 MISSISSIPPI AV,
318,MISSISSIPPI AV,BOGALUSA,70427,,,,,,,110403,00001527WK,R 320 MISSISSIPPI AV,318 MISSISSIPPI AV,
319,MISSISSIPPI AV,BOGALUSA,70427,,,,,,,110403,00001525N8,F 320 MISSISSIPPI AV,319 MISSISSIPPI AV,
320,MISSISSIPPI AV,BOGALUSA,70427,,,,,,,110403,0000151WXK,F 320 MISSISSIPPI AV,320 MISSISSIPPI AV,
321,MISSISSIPPI AV,BOGALUSA,70427,,,,,,,110403,0000152BQY,R 403 MISSISSIPPI AV,321 MISSISSIPPI AV,
323,MISSISSIPPI AV,BOGALUSA,70427,,,,,,,110403,00001527W7,R 403 MISSISSIPPI AV,323 MISSISSIPPI AV,
325,MISSISSIPPI AV,BOGALUSA,70427,,,,,,,110403,00001525N4,R 403 MISSISSIPPI AV,325 MISSISSIPPI AV,
326,MISSISSIPPI AV,BOGALUSA,70427,,,,,,,110403,00001523F3,F 320 MISSISSIPPI AV,326 MISSISSIPPI AV,
326-B,MISSISSIPPI AV,BOGALUSA,70427,,,,,,,110403,00001523F3,F 320 MISSISSIPPI AV,326-B MISSISSIPPI AV,
327,MISSISSIPPI AV,BOGALUSA,70427,,,,,,,110403,000015266L,R 403 MISSISSIPPI AV,327 MISSISSIPPI AV,
329,MISSISSIPPI AV,BOGALUSA,70427,,,,,,,110403,00001524EK,R 403 MISSISSIPPI AV,329 MISSISSIPPI AV,
401,MISSISSIPPI AV,BOGALUSA,70427,,,,,,,110403,0000152BNZ,R 403 MISSISSIPPI AV,401 MISSISSIPPI AV,
402,MISSISSIPPI AV,BOGALUSA,70427,,,FLR,UPSTAIRS,,,110403,00001522TG,R 408 MISSISSIPPI AV,402 MISSISSIPPI AV   FLR UPSTAIRS,
402,MISSISSIPPI AV,BOGALUSA,70427,,,,,,,110403,0000151YDZ,R 408 MISSISSIPPI AV,402 MISSISSIPPI AV,
402-B,MISSISSIPPI AV,BOGALUSA,70427,,,,,,,110403,00001526XN,R 408 MISSISSIPPI AV,402-B MISSISSIPPI AV,
403,MISSISSIPPI AV,BOGALUSA,70427,,,,,,,110403,00001521AZ,R 403 MISSISSIPPI AV,403 MISSISSIPPI AV,
405,MISSISSIPPI AV,BOGALUSA,70427,,,,,,,110403,00001527VE,R 403 MISSISSIPPI AV,405 MISSISSIPPI AV,
407,MISSISSIPPI AV,BOGALUSA,70427,,,,,,,110403,00001524LE,R 413 MISSISSIPPI AV,407 MISSISSIPPI AV,
408,MISSISSIPPI AV,BOGALUSA,70427,,,,,,,110403,0000152B4U,R 408 MISSISSIPPI AV,408 MISSISSIPPI AV,
409,MISSISSIPPI AV,BOGALUSA,70427,,,,,,,110403,0000151Y2Z,R 413 MISSISSIPPI AV,409 MISSISSIPPI AV,
410,MISSISSIPPI AV,BOGALUSA,70427,,,,,,,110403,00001525MT,R 408 MISSISSIPPI AV,410 MISSISSIPPI AV,
411,MISSISSIPPI AV,BOGALUSA,70427,,,,,,,110403,0000152BIW,R 413 MISSISSIPPI AV,411 MISSISSIPPI AV,
412,MISSISSIPPI AV,BOGALUSA,70427,,,,,,,110403,0000152A29,R 408 MISSISSIPPI AV,412 MISSISSIPPI AV,
413,MISSISSIPPI AV,BOGALUSA,70427,,,,,,,110403,0000152CS0,R 413 MISSISSIPPI AV,413 MISSISSIPPI AV,
414,MISSISSIPPI AV,BOGALUSA,70427,,,,,,,110403,00001527T4,R 408 MISSISSIPPI AV,414 MISSISSIPPI AV,
415,MISSISSIPPI AV,BOGALUSA,70427,,,,,,,110403,0000152BCE,R 413 MISSISSIPPI AV,415 MISSISSIPPI AV,
416,MISSISSIPPI AV,BOGALUSA,70427,,,,,,,110403,00001526DL,R 408 MISSISSIPPI AV,416 MISSISSIPPI AV,
417,MISSISSIPPI AV,BOGALUSA,70427,,,,,,,110403,0000152CZW,R 413 MISSISSIPPI AV,417 MISSISSIPPI AV,
418,MISSISSIPPI AV,BOGALUSA,70427,,,,,,,110403,00001526ZE,R 408 MISSISSIPPI AV,418 MISSISSIPPI AV,
419,MISSISSIPPI AV,BOGALUSA,70427,,,,,,,110403,000015286M,R 415 ATLANTA ST,419 MISSISSIPPI AV,
420,MISSISSIPPI AV,BOGALUSA,70427,,,,,,,110403,00001522RE,R 408 MISSISSIPPI AV,420 MISSISSIPPI AV,
421,MISSISSIPPI AV,BOGALUSA,70427,,,,,,,110403,00001526VW,R 415 ATLANTA ST,421 MISSISSIPPI AV,
422,MISSISSIPPI AV,BOGALUSA,70427,,,,,,,110403,0000151WYD,R 422 MISSISSIPPI AV,422 MISSISSIPPI AV,
423,MISSISSIPPI AV,BOGALUSA,70427,,,,,,,110403,00001523YR,R 415 ATLANTA ST,423 MISSISSIPPI AV,
424,MISSISSIPPI AV,BOGALUSA,70427,,,,,,,110403,0000152BV1,R 408 MISSISSIPPI AV,424 MISSISSIPPI AV,
425,MISSISSIPPI AV,BOGALUSA,70427,,,,,,,110403,00001520V7,F 517 ATLANTA ST,425 MISSISSIPPI AV,
426,MISSISSIPPI AV,BOGALUSA,70427,,,,,,,110403,00001525DN,R 408 MISSISSIPPI AV,426 MISSISSIPPI AV,
427,MISSISSIPPI AV,BOGALUSA,70427,,,,,,,110403,000015245Y,R 415 ATLANTA ST,427 MISSISSIPPI AV,
428,MISSISSIPPI AV,BOGALUSA,70427,,,,,,,110403,00001528G9,R 428 MISSISSIPPI AV,428 MISSISSIPPI AV,
429,MISSISSIPPI AV,BOGALUSA,70427,,,,,,,110403,00001522XO,R 415 ATLANTA ST,429 MISSISSIPPI AV,
500,MISSISSIPPI AV,BOGALUSA,70427,,,,,,,110403,00001525CF,R 428 MISSISSIPPI AV,500 MISSISSIPPI AV,
502,MISSISSIPPI AV,BOGALUSA,70427,,,,,,,110403,00001527OZ,R 336 ATLANTA ST,502 MISSISSIPPI AV,
506,MISSISSIPPI AV,BOGALUSA,70427,,,,,,,110403,00001521YJ,R 520 MISSISSIPPI AV,506 MISSISSIPPI AV,
512,MISSISSIPPI AV,BOGALUSA,70427,,,,,,,110403,000015242Z,R 520 MISSISSIPPI AV,512 MISSISSIPPI AV,
517,MISSISSIPPI AV,BOGALUSA,70427,,,,,,,110403,0000152BJE,F 517 ATLANTA ST,517 MISSISSIPPI AV,
526,MISSISSIPPI AV,BOGALUSA,70427,,,,,,,110403,0000152BLL,F 335 MONTGOMERY ST,526 MISSISSIPPI AV,
530,MISSISSIPPI AV,BOGALUSA,70427,,,,,,,110403,0000151ZM4,F 335 MONTGOMERY ST,530 MISSISSIPPI AV,
602,MISSISSIPPI AV,BOGALUSA,70427,,,,,,,110403,0000151XSY,R 334 MONTGOMERY ST,602 MISSISSIPPI AV,
606,MISSISSIPPI AV,BOGALUSA,70427,,,,,,,110403,00001524UW,R 334 MONTGOMERY ST,606 MISSISSIPPI AV,
610,MISSISSIPPI AV,BOGALUSA,70427,,,,,,,110403,0000152D45,R 334 MONTGOMERY ST,610 MISSISSIPPI AV,
612,MISSISSIPPI AV,BOGALUSA,70427,,,,,,,110403,0000152841,R 612 MISSISSIPPI AV,612 MISSISSIPPI AV,
614,MISSISSIPPI AV,BOGALUSA,70427,,,,,,,110403,00001527W2,R 612 MISSISSIPPI AV,614 MISSISSIPPI AV,
616,MISSISSIPPI AV,BOGALUSA,70427,,,,,,,110403,0000151WWO,R 612 MISSISSIPPI AV,616 MISSISSIPPI AV,
618,MISSISSIPPI AV,BOGALUSA,70427,,,,,,,110403,0000151YHF,R 612 MISSISSIPPI AV,618 MISSISSIPPI AV,
620,MISSISSIPPI AV,BOGALUSA,70427,,,,,,,110403,00001524LH,R 335 RICHMOND ST,620 MISSISSIPPI AV,
624,MISSISSIPPI AV,BOGALUSA,70427,,,,,,,110403,00001525QT,R 335 RICHMOND ST,624 MISSISSIPPI AV,
702,MISSISSIPPI AV,BOGALUSA,70427,,,,,,,110403,0000152BO1,R 706 MISSISSIPPI AV,702 MISSISSIPPI AV,
704,MISSISSIPPI AV,BOGALUSA,70427,,,,,,,110403,0000152CUN,R 706 MISSISSIPPI AV,704 MISSISSIPPI AV,
706,MISSISSIPPI AV,BOGALUSA,70427,,,,,,,110403,0000152743,R 706 MISSISSIPPI AV,706 MISSISSIPPI AV,
707,MISSISSIPPI AV,BOGALUSA,70427,,,,,,,110403,000015299D,R 707 MISSISSIPPI AV,707 MISSISSIPPI AV,
708,MISSISSIPPI AV,BOGALUSA,70427,,,,,,,110403,000015247A,R 706 MISSISSIPPI AV,708 MISSISSIPPI AV,
710,MISSISSIPPI AV,BOGALUSA,70427,,,,,,,110403,0000152C7W,R 706 MISSISSIPPI AV,710 MISSISSIPPI AV,
712,MISSISSIPPI AV,BOGALUSA,70427,,,,,,,110403,00001521K4,R 712 MISSISSIPPI AV,712 MISSISSIPPI AV,
720,MISSISSIPPI AV,BOGALUSA,70427,,,,,,,110403,0000152C3F,F 720 MISSISSIPPI AV,720 MISSISSIPPI AV,
725,MISSISSIPPI AV,BOGALUSA,70427,,,,,,,110403,0000152C5X,R 707 MISSISSIPPI AV,725 MISSISSIPPI AV,
726,MISSISSIPPI AV,BOGALUSA,70427,,,,,,,110403,0000152DTF,F 720 MISSISSIPPI AV,726 MISSISSIPPI AV,
731,MISSISSIPPI AV,BOGALUSA,70427,,,,,,,110403,00001524VZ,S 902 VIRGINIA AV,731 MISSISSIPPI AV,
805,MISSISSIPPI AV,BOGALUSA,70427,,,,,,,110403,00001527YT,F 826 MISSISSIPPI AV,805 MISSISSIPPI AV,
808,MISSISSIPPI AV,BOGALUSA,70427,,,,,,,110403,00001523R2,F 808 MISSISSIPPI AV,808 MISSISSIPPI AV,
826,MISSISSIPPI AV,BOGALUSA,70427,,,,,,,110403,0000152B6X,F 826 MISSISSIPPI AV,826 MISSISSIPPI AV,
829,MISSISSIPPI AV,BOGALUSA,70427,,,,,,,110403,0000152B5O,R 808B CAROLINA AV,829 MISSISSIPPI AV,
907,MISSISSIPPI AV,BOGALUSA,70427,,,,,,,110403,0000152A3L,F 720 MISSISSIPPI AV,907 MISSISSIPPI AV,
908,MISSISSIPPI AV,BOGALUSA,70427,,,,,,,110403,000015212J,F 720 MISSISSIPPI AV,908 MISSISSIPPI AV,
910,MISSISSIPPI AV,BOGALUSA,70427,,,,,,,110403,0000152BL5,F 910 MISSISSIPPI AV,910 MISSISSIPPI AV,
911,MISSISSIPPI AV,BOGALUSA,70427,,,,,,,110403,0000152DZC,F 910 MISSISSIPPI AV,911 MISSISSIPPI AV,
921,MISSISSIPPI AV,BOGALUSA,70427,,,,,,,110403,0000151ZM1,F 914 MISSISSIPPI AV,921 MISSISSIPPI AV,
922,MISSISSIPPI AV,BOGALUSA,70427,,,,,,,110403,00001527JM,F 910 MISSISSIPPI AV,922 MISSISSIPPI AV,
526,MISSISSIPPI ST,BOGALUSA,70427,,,,,,,110403,0000152BLL,F 335 MONTGOMERY ST,526 MISSISSIPPI ST,
136,MONTGOMERY ST,BOGALUSA,70427,,,,,,,110403,0000152AKH,F 159 MONTGOMERY ST,136 MONTGOMERY ST,
137,MONTGOMERY ST,BOGALUSA,70427,,,,,,,110403,0000152C3Y,F 159 MONTGOMERY ST,137 MONTGOMERY ST,
138,MONTGOMERY ST,BOGALUSA,70427,,,,,,,110403,0000152DTV,F 159 MONTGOMERY ST,138 MONTGOMERY ST,
143,MONTGOMERY ST,BOGALUSA,70427,,,,,,,110403,0000152BNL,F 159 MONTGOMERY ST,143 MONTGOMERY ST,
149,MONTGOMERY ST,BOGALUSA,70427,,,,,,,110403,000015266A,F 159 MONTGOMERY ST,149 MONTGOMERY ST,
153,MONTGOMERY ST,BOGALUSA,70427,,,,,,,110403,0000151ZXX,F 159 MONTGOMERY ST,153 MONTGOMERY ST,
155,MONTGOMERY ST,BOGALUSA,70427,,,,,,,110403,0000151WUM,F 159 MONTGOMERY ST,155 MONTGOMERY ST,
205,MONTGOMERY ST,BOGALUSA,70427,,,,,,,110403,0000151YE5,OPP 220 MONTGOMERY ST,205 MONTGOMERY ST,
207,MONTGOMERY ST,BOGALUSA,70427,,,,,,,110403,00001529HD,OPP 220 MONTGOMERY ST,207 MONTGOMERY ST,
209,MONTGOMERY ST,BOGALUSA,70427,,,,,,,110403,0000151ZTS,OPP 220 MONTGOMERY ST,209 MONTGOMERY ST,
210,MONTGOMERY ST,BOGALUSA,70427,,,,,,,110403,0000151XJM,OPP 220 MONTGOMERY ST,210 MONTGOMERY ST,
211,MONTGOMERY ST,BOGALUSA,70427,,,,,,,110403,000015206R,OPP 220 MONTGOMERY ST,211 MONTGOMERY ST,
212,MONTGOMERY ST,BOGALUSA,70427,,,,,,,110403,0000152BW6,OPP 220 MONTGOMERY ST,212 MONTGOMERY ST,
214,MONTGOMERY ST,BOGALUSA,70427,,,,,,,110403,0000152B14,OPP 220 MONTGOMERY ST,214 MONTGOMERY ST,
215,MONTGOMERY ST,BOGALUSA,70427,,,,,,,110403,0000152547,OPP 220 MONTGOMERY ST,215 MONTGOMERY ST,
216,MONTGOMERY ST,BOGALUSA,70427,,,,,,,110403,00001527R6,OPP 220 MONTGOMERY ST,216 MONTGOMERY ST,
217,MONTGOMERY ST,BOGALUSA,70427,,,,,,,110403,000015290N,OPP 220 MONTGOMERY ST,217 MONTGOMERY ST,
218,MONTGOMERY ST,BOGALUSA,70427,,,,,,,110403,000015265C,OPP 220 MONTGOMERY ST,218 MONTGOMERY ST,
220,MONTGOMERY ST,BOGALUSA,70427,,,,,,,110403,0000152DIV,OPP 220 MONTGOMERY ST,220 MONTGOMERY ST,
221,MONTGOMERY ST,BOGALUSA,70427,,,,,,,110403,0000152BNJ,F 225 MONTGOMERY ST,221 MONTGOMERY ST,
222,MONTGOMERY ST,BOGALUSA,70427,,,,,,,110403,0000152AWY,F 231 MONTGOMERY ST,222 MONTGOMERY ST,
223,MONTGOMERY ST,BOGALUSA,70427,,,,,,,110403,0000152BNE,F 225 MONTGOMERY ST,223 MONTGOMERY ST,
224,MONTGOMERY ST,BOGALUSA,70427,,,,,,,110403,0000152CVX,F 225 MONTGOMERY ST,224 MONTGOMERY ST,
225,MONTGOMERY ST,BOGALUSA,70427,APT,A,,,,,110403,0000152BNN,F 225 MONTGOMERY ST,225 MONTGOMERY ST APT A,
225,MONTGOMERY ST,BOGALUSA,70427,APT,B,,,,,110403,0000152ABP,F 225 MONTGOMERY ST,225 MONTGOMERY ST APT B,
225,MONTGOMERY ST,BOGALUSA,70427,APT,C,,,,,110403,0000152DU8,F 225 MONTGOMERY ST,225 MONTGOMERY ST APT C,
225,MONTGOMERY ST,BOGALUSA,70427,APT,D,,,,,110403,00001524VX,F 225 MONTGOMERY ST,225 MONTGOMERY ST APT D,
225,MONTGOMERY ST,BOGALUSA,70427,,,,,,,110403,00001527V3,F 225 MONTGOMERY ST,225 MONTGOMERY ST,
226,MONTGOMERY ST,BOGALUSA,70427,,,,,,,110403,000015299I,F 225 MONTGOMERY ST,226 MONTGOMERY ST,
227,MONTGOMERY ST,BOGALUSA,70427,,,,,,,110403,00001527WD,F 225 MONTGOMERY ST,227 MONTGOMERY ST,
228,MONTGOMERY ST,BOGALUSA,70427,,,,,,,110403,0000152BO2,F 225 MONTGOMERY ST,228 MONTGOMERY ST,
229,MONTGOMERY ST,BOGALUSA,70427,,,,,,,110403,00001527VK,F 225 MONTGOMERY ST,229 MONTGOMERY ST,
230,MONTGOMERY ST,BOGALUSA,70427,,,,,,,110403,0000152C3V,F 225 MONTGOMERY ST,230 MONTGOMERY ST,
231,MONTGOMERY ST,BOGALUSA,70427,APT,REAR,,,,,110403,0000152AVB,F 231 MONTGOMERY ST,231 MONTGOMERY ST APT REAR,
231,MONTGOMERY ST,BOGALUSA,70427,,,,,,,110403,0000151ZGR,F 231 MONTGOMERY ST,231 MONTGOMERY ST,
232,MONTGOMERY ST,BOGALUSA,70427,,,,,,,110403,0000152D3W,F 225 MONTGOMERY ST,232 MONTGOMERY ST,
234,MONTGOMERY ST,BOGALUSA,70427,APT,1,,,,,110403,00001524L8,F 613 GEORGIA AV,234 MONTGOMERY ST APT 1,
236,MONTGOMERY ST,BOGALUSA,70427,,,,,,,110403,00001523BF,F 244 MONTGOMERY ST,236 MONTGOMERY ST,
238,MONTGOMERY ST,BOGALUSA,70427,APT,A,,,,,110403,0000P67T3Q,F 231 MONTGOMERY ST,238 MONTGOMERY ST APT A,
238,MONTGOMERY ST,BOGALUSA,70427,APT,B,,,,,110403,00001527W4,F 231 MONTGOMERY ST,238 MONTGOMERY ST APT B,
238,MONTGOMERY ST,BOGALUSA,70427,APT,C,,,,,110403,00001520O6,F 231 MONTGOMERY ST,238 MONTGOMERY ST APT C,
238,MONTGOMERY ST,BOGALUSA,70427,APT,D,,,,,110403,000015285H,F 231 MONTGOMERY ST,238 MONTGOMERY ST APT D,
238,MONTGOMERY ST,BOGALUSA,70427,,,,,,,110403,00001521KB,F 231 MONTGOMERY ST,238 MONTGOMERY ST,
244,MONTGOMERY ST,BOGALUSA,70427,,,,,,,110403,0000152DUC,F 244 MONTGOMERY ST,244 MONTGOMERY ST,
248,MONTGOMERY ST,BOGALUSA,70427,,,,,,,110403,00001529O1,F 601 GEORGIA AV,248 MONTGOMERY ST,
301,MONTGOMERY ST,BOGALUSA,70427,,,,,,,110403,0000152C3H,F 321 MONTGOMERY ST,301 MONTGOMERY ST,
305,MONTGOMERY ST,BOGALUSA,70427,,,,,,,110403,0000152BE1,F 321 MONTGOMERY ST,305 MONTGOMERY ST,
307,MONTGOMERY ST,BOGALUSA,70427,,,,,,,110403,0000152D44,F 321 MONTGOMERY ST,307 MONTGOMERY ST,
312,MONTGOMERY ST,BOGALUSA,70427,,,,,,,110403,000015266O,F 321 MONTGOMERY ST,312 MONTGOMERY ST,
315,MONTGOMERY ST,BOGALUSA,70427,,,,,,,110403,00001527BP,F 321 MONTGOMERY ST,315 MONTGOMERY ST,
318,MONTGOMERY ST,BOGALUSA,70427,APT,A,,,,,110403,00001523XN,F 321 MONTGOMERY ST,318 MONTGOMERY ST APT A,
318,MONTGOMERY ST,BOGALUSA,70427,APT,B,,,,,110403,000015211Q,R 612 MISSISSIPPI AV,318 MONTGOMERY ST APT B,
318,MONTGOMERY ST,BOGALUSA,70427,UNIT,D,,,,,110403,00001525UZ,R 612 MISSISSIPPI AV,318 MONTGOMERY ST UNIT D,
318,MONTGOMERY ST,BOGALUSA,70427,UNIT,E,,,,,110403,00001526J5,R 612 MISSISSIPPI AV,318 MONTGOMERY ST UNIT E,
321,MONTGOMERY ST,BOGALUSA,70427,,,,,,,110403,0000152BKZ,F 321 MONTGOMERY ST,321 MONTGOMERY ST,
322,MONTGOMERY ST,BOGALUSA,70427,APT,D,,,,,110403,00001523P9,R 612 MISSISSIPPI AV,322 MONTGOMERY ST APT D,
323,MONTGOMERY ST,BOGALUSA,70427,,,,,,,110403,00001525NC,F 321 MONTGOMERY ST,323 MONTGOMERY ST,
324,MONTGOMERY ST,BOGALUSA,70427,,,,,,,110403,0000152D3O,R 334 MONTGOMERY ST,324 MONTGOMERY ST,
328,MONTGOMERY ST,BOGALUSA,70427,APT,A,,,,,110403,00001522B2,R 334 MONTGOMERY ST,328 MONTGOMERY ST APT A,
329,MONTGOMERY ST,BOGALUSA,70427,,,,,,,110403,0000152BL7,F 335 MONTGOMERY ST,329 MONTGOMERY ST,
334,MONTGOMERY ST,BOGALUSA,70427,,,,,,,110403,0000152CPT,R 334 MONTGOMERY ST,334 MONTGOMERY ST,
335,MONTGOMERY ST,BOGALUSA,70427,,,,,,,110403,0000151Z4D,F 335 MONTGOMERY ST,335 MONTGOMERY ST,
125,N COLUMBIA ST,BOGALUSA,70427,,,,,,,110403,0000152080,F 159 MONTGOMERY ST,125 N COLUMBIA ST,
420,N COLUMBIA ST,BOGALUSA,70427,,,,,,,110403,00010JTZBC,R 1003 MISSISSIPPI AV,420 N COLUMBIA ST,
421,ORLEANS ST,BOGALUSA,70427,,,,,,,110403,00001529A0,R 707 MISSISSIPPI AV,421 ORLEANS ST,
425,ORLEANS ST,BOGALUSA,70427,,,,,,,110403,00001522B9,R 424 RICHMOND ST,425 ORLEANS ST,
426,ORLEANS ST,BOGALUSA,70427,,,,,,,110403,0000152AAQ,S 426 ORLEANS ST,426 ORLEANS ST,
427,ORLEANS ST,BOGALUSA,70427,,,,,,,110403,00001524FY,R 726 CAROLINA AV,427 ORLEANS ST,
437-B,ORLEANS ST,BOGALUSA,70427,,,,,,,110403,00001528FG,R 726 CAROLINA AV,437-B ORLEANS ST,
506,ORLEANS ST,BOGALUSA,70427,,,,,,,110403,00001520TZ,R 803 CAROLINA AV,506 ORLEANS ST,
508,ORLEANS ST,BOGALUSA,70427,APT,A,,,,,110403,0001072Q7J,R 803 CAROLINA AV,508 ORLEANS ST APT A,
508,ORLEANS ST,BOGALUSA,70427,,,,,,,110403,000015284G,R 803 CAROLINA AV,508 ORLEANS ST,
508 1/2,ORLEANS ST,BOGALUSA,70427,,,,,,,110403,00001521XP,R 803 CAROLINA AV,508-1/2 ORLEANS ST,
512,ORLEANS ST,BOGALUSA,70427,,,,,,,110403,0000152B65,R 803 CAROLINA AV,512 ORLEANS ST,
518,ORLEANS ST,BOGALUSA,70427,APT,A,,,,,110403,0000152DX2,R 803 CAROLINA AV,518 ORLEANS ST APT A,
518,ORLEANS ST,BOGALUSA,70427,APT,B,,,,,110403,0000152BDG,R 803 CAROLINA AV,518 ORLEANS ST APT B,
518,ORLEANS ST,BOGALUSA,70427,,,,,,,110403,0000152BNO,R 803 CAROLINA AV,518 ORLEANS ST,
522,ORLEANS ST,BOGALUSA,70427,,,,,,,110403,00001520X7,R 803 CAROLINA AV,522 ORLEANS ST,
524,ORLEANS ST,BOGALUSA,70427,,,,,,,110403,00001QCPNO,R 803 CAROLINA AV,524 ORLEANS ST,
100,RICHMOND ST,BOGALUSA,70427,,,,,,,110403,00001521U3,R 166 RICHMOND ST,100 RICHMOND ST,
104,RICHMOND ST,BOGALUSA,70427,,,,,,,110403,00001524LA,F 100 RICHMOND ST,104 RICHMOND ST,
130,RICHMOND ST,BOGALUSA,70427,,,,,,,110403,00001525T4,F 100 RICHMOND ST,130 RICHMOND ST,
132,RICHMOND ST,BOGALUSA,70427,,,,,,,110403,00001527IS,F 132 RICHMOND ST,132 RICHMOND ST,
140,RICHMOND ST,BOGALUSA,70427,,,,,,,110403,0000151Z3Z,F 100 RICHMOND ST,140 RICHMOND ST,
142,RICHMOND ST,BOGALUSA,70427,,,,,,,110403,000015204X,F 100 RICHMOND ST,142 RICHMOND ST,
144,RICHMOND ST,BOGALUSA,70427,,,,,,,110403,0000152CLB,F 100 RICHMOND ST,144 RICHMOND ST,
155,RICHMOND ST,BOGALUSA,70427,,,,,,,110403,0000151YM4,F 159 MONTGOMERY ST,155 RICHMOND ST,
166,RICHMOND ST,BOGALUSA,70427,SUIT,A,,,,,110403,00001521MV,R 166 RICHMOND ST,166 RICHMOND ST SUIT A,
166,RICHMOND ST,BOGALUSA,70427,,,,,,,110403,00001525BJ,R 166 RICHMOND ST,166 RICHMOND ST,Y
168,RICHMOND ST,BOGALUSA,70427,,,,,,,110403,00001527UC,R 166 RICHMOND ST,168 RICHMOND ST,
200,RICHMOND ST,BOGALUSA,70427,RM,WIRE CLOS,FLR,1,,,110403,000015276S,I 200 RICHMOND ST,200 RICHMOND ST RM WIRE CLOS FLR 1,
200,RICHMOND ST,BOGALUSA,70427,,,,,,,110403,0000151YM2,I 200 RICHMOND ST,200 RICHMOND ST,
204,RICHMOND ST,BOGALUSA,70427,,,,,,,110403,00001527W1,I 200 RICHMOND ST,204 RICHMOND ST,
213,RICHMOND ST,BOGALUSA,70427,,,,,,,110403,00001527BR,F 234 RICHMOND ST,213 RICHMOND ST,
214,RICHMOND ST,BOGALUSA,70427,,,,,,,110403,0000152D3Z,F 234 RICHMOND ST,214 RICHMOND ST,
215,RICHMOND ST,BOGALUSA,70427,,,,,,,110403,000015266M,F 234 RICHMOND ST,215 RICHMOND ST,
217,RICHMOND ST,BOGALUSA,70427,,,,,,,110403,00001525NB,F 234 RICHMOND ST,217 RICHMOND ST,
218,RICHMOND ST,BOGALUSA,70427,,,,,,,110403,00001527VI,F 234 RICHMOND ST,218 RICHMOND ST,
219,RICHMOND ST,BOGALUSA,70427,,,,,,,110403,00001527W6,F 234 RICHMOND ST,219 RICHMOND ST,
220,RICHMOND ST,BOGALUSA,70427,,,,,,,110403,0000152CHN,F 234 RICHMOND ST,220 RICHMOND ST,
221,RICHMOND ST,BOGALUSA,70427,,,,,,,110403,0000152968,F 234 RICHMOND ST,221 RICHMOND ST,
222,RICHMOND ST,BOGALUSA,70427,SUIT,A,,,,,110403,0000152C7I,R 222A RICHMOND ST,222 RICHMOND ST SUIT A,
222,RICHMOND ST,BOGALUSA,70427,SUIT,B,,,,,110403,0000152BDO,R 222A RICHMOND ST,222 RICHMOND ST SUIT B,
222,RICHMOND ST,BOGALUSA,70427,UNIT,C,,,,,110403,000015238L,R 222A RICHMOND ST,222 RICHMOND ST UNIT C,
222,RICHMOND ST,BOGALUSA,70427,SUIT,D,,,,,110403,00001527VD,R 222A RICHMOND ST,222 RICHMOND ST SUIT D,
222,RICHMOND ST,BOGALUSA,70427,SUIT,E,,,,,110403,00001528N8,R 222E RICHMOND ST,222 RICHMOND ST SUIT E,
222,RICHMOND ST,BOGALUSA,70427,SUIT,E E,,,,,110403,00001525HH,R 222E RICHMOND ST,222 RICHMOND ST SUIT E E,
222,RICHMOND ST,BOGALUSA,70427,SUIT,F,,,,,110403,00001RCCG9,R 222A RICHMOND ST,222 RICHMOND ST SUIT F,
222,RICHMOND ST,BOGALUSA,70427,,,,,,,110403,00001527VS,R 222A RICHMOND ST,222 RICHMOND ST,
222-E,RICHMOND ST,BOGALUSA,70427,SUIT,E,,,,,110403,000117T08C,R 222E RICHMOND ST,222-E RICHMOND ST SUIT E,
223,RICHMOND ST,BOGALUSA,70427,,,,,,,110403,000015264P,F 234 RICHMOND ST,223 RICHMOND ST,
225,RICHMOND ST,BOGALUSA,70427,,,,,,,110403,0000152E1R,F 234 RICHMOND ST,225 RICHMOND ST,
226,RICHMOND ST,BOGALUSA,70427,,,,,,,110403,00001527N1,F 234 RICHMOND ST,226 RICHMOND ST,
227,RICHMOND ST,BOGALUSA,70427,,,,,,,110403,00001521M0,F 234 RICHMOND ST,227 RICHMOND ST,
228,RICHMOND ST,BOGALUSA,70427,,,,,,,110403,00001528NT,F 228 RICHMOND ST,228 RICHMOND ST,
229,RICHMOND ST,BOGALUSA,70427,,,,,,,110403,00001528FV,F 234 RICHMOND ST,229 RICHMOND ST,
230,RICHMOND ST,BOGALUSA,70427,,,,,,,110403,0000152B6O,R 222A RICHMOND ST,230 RICHMOND ST,
231,RICHMOND ST,BOGALUSA,70427,,,,,,,110403,0000152B8Q,F 234 RICHMOND ST,231 RICHMOND ST,
233,RICHMOND ST,BOGALUSA,70427,,,,,,,110403,0000152BAA,F 234 RICHMOND ST,233 RICHMOND ST,
234,RICHMOND ST,BOGALUSA,70427,APT,A,,,,,110403,0000152CU1,F 234 RICHMOND ST,234 RICHMOND ST APT A,
234,RICHMOND ST,BOGALUSA,70427,SUIT,B,,,,,110403,0000152B67,F 234 RICHMOND ST,234 RICHMOND ST SUIT B,
234,RICHMOND ST,BOGALUSA,70427,,,,,,,110403,000015284L,F 234 RICHMOND ST,234 RICHMOND ST,
235,RICHMOND ST,BOGALUSA,70427,,,,,,,110403,0000152CGQ,F 234 RICHMOND ST,235 RICHMOND ST,
236,RICHMOND ST,BOGALUSA,70427,,,,,,,110403,0000152AZM,F 234 RICHMOND ST,236 RICHMOND ST,
237,RICHMOND ST,BOGALUSA,70427,,,,,,,110403,0000152202,F 234 RICHMOND ST,237 RICHMOND ST,
238,RICHMOND ST,BOGALUSA,70427,,,,,,,110403,00001522RB,F 234 RICHMOND ST,238 RICHMOND ST,
239,RICHMOND ST,BOGALUSA,70427,,,,,,,110403,00001525L5,F 234 RICHMOND ST,239 RICHMOND ST,
240,RICHMOND ST,BOGALUSA,70427,APT,A,,,,,110403,0000152DZW,F 240 RICHMOND ST,240 RICHMOND ST APT A,
240,RICHMOND ST,BOGALUSA,70427,APT,B,,,,,110403,00001529JV,F 240 RICHMOND ST,240 RICHMOND ST APT B,
240,RICHMOND ST,BOGALUSA,70427,APT,C,,,,,110403,00001527V4,F 240 RICHMOND ST,240 RICHMOND ST APT C,
241,RICHMOND ST,BOGALUSA,70427,,,,,,,110403,0000152BIM,F 240 RICHMOND ST,241 RICHMOND ST,
242,RICHMOND ST,BOGALUSA,70427,,,,,,,110403,0000152C3L,F 240 RICHMOND ST,242 RICHMOND ST,
243,RICHMOND ST,BOGALUSA,70427,,,,,,,110403,000015257A,F 240 RICHMOND ST,243 RICHMOND ST,
244,RICHMOND ST,BOGALUSA,70427,,,,,,,110403,0000152BNS,F 240 RICHMOND ST,244 RICHMOND ST,
245,RICHMOND ST,BOGALUSA,70427,,,,,,,110403,0000152BNY,F 240 RICHMOND ST,245 RICHMOND ST,
246,RICHMOND ST,BOGALUSA,70427,,,,,,,110403,000015257C,F 240 RICHMOND ST,246 RICHMOND ST,
247,RICHMOND ST,BOGALUSA,70427,,,,,,,110403,00001523QV,S 621 GEORGIA AV,247 RICHMOND ST,
248,RICHMOND ST,BOGALUSA,70427,,,,,,,110403,000015234G,F 240 RICHMOND ST,248 RICHMOND ST,
300,RICHMOND ST,BOGALUSA,70427,,,,,,,110403,000015257E,R 314 RICHMOND ST,300 RICHMOND ST,
302,RICHMOND ST,BOGALUSA,70427,,,,,,,110403,00001520JB,R 314 RICHMOND ST,302 RICHMOND ST,
312,RICHMOND ST,BOGALUSA,70427,,,,,,,110403,00001523OA,R 314 RICHMOND ST,312 RICHMOND ST,
313,RICHMOND ST,BOGALUSA,70427,,,,,,,110403,0000151ZY5,R 612 MISSISSIPPI AV,313 RICHMOND ST,
318,RICHMOND ST,BOGALUSA,70427,,,,,,,110403,00001526TQ,R 314 RICHMOND ST,318 RICHMOND ST,
321,RICHMOND ST,BOGALUSA,70427,,,,,,,110403,00001520R0,R 612 MISSISSIPPI AV,321 RICHMOND ST,
324,RICHMOND ST,BOGALUSA,70427,,,,,,,110403,000015250A,R 706 MISSISSIPPI AV,324 RICHMOND ST,
326,RICHMOND ST,BOGALUSA,70427,,,,,,,110403,0000152CHO,R 706 MISSISSIPPI AV,326 RICHMOND ST,
327,RICHMOND ST,BOGALUSA,70427,,,,,,,110403,0000151Z3P,R 612 MISSISSIPPI AV,327 RICHMOND ST,
328,RICHMOND ST,BOGALUSA,70427,APT,B,,,,,110403,00001524LB,R 706 MISSISSIPPI AV,328 RICHMOND ST APT B,
328,RICHMOND ST,BOGALUSA,70427,,,,,,,110403,00001527PQ,R 706 MISSISSIPPI AV,328 RICHMOND ST,
329,RICHMOND ST,BOGALUSA,70427,,,,,,,110403,0000152BJN,R 335 RICHMOND ST,329 RICHMOND ST,
330,RICHMOND ST,BOGALUSA,70427,APT,B,,,,,110403,0000152CRE,R 314 RICHMOND ST,330 RICHMOND ST APT B,
331,RICHMOND ST,BOGALUSA,70427,,,,,,,110403,0000152DFK,R 612 MISSISSIPPI AV,331 RICHMOND ST,
333,RICHMOND ST,BOGALUSA,70427,,,,,,,110403,0000152BYC,R 612 MISSISSIPPI AV,333 RICHMOND ST,
335,RICHMOND ST,BOGALUSA,70427,,,,,,,110403,000015233U,R 335 RICHMOND ST,335 RICHMOND ST,
409,RICHMOND ST,BOGALUSA,70427,,,,,,,110403,00001520N7,F 335 MONTGOMERY ST,409 RICHMOND ST,
420,RICHMOND ST,BOGALUSA,70427,APT,A,,,,,110403,000015274S,R 707 MISSISSIPPI AV,420 RICHMOND ST APT A,
420,RICHMOND ST,BOGALUSA,70427,APT,B,,,,,110403,00001525Z8,R 707 MISSISSIPPI AV,420 RICHMOND ST APT B,
420,RICHMOND ST,BOGALUSA,70427,,,,,,,110403,00001520DK,R 424 RICHMOND ST,420 RICHMOND ST,
424,RICHMOND ST,BOGALUSA,70427,APT,REAR,,,,,110403,000015257F,R 424 RICHMOND ST,424 RICHMOND ST APT REAR,
424,RICHMOND ST,BOGALUSA,70427,,,,,,,110403,0000152CSI,R 424 RICHMOND ST,424 RICHMOND ST,
430,RICHMOND ST,BOGALUSA,70427,APT,A,,,,,110403,000015256G,R 436 RICHMOND ST,430 RICHMOND ST APT A,
430,RICHMOND ST,BOGALUSA,70427,APT,B,,,,,110403,00001526AT,R 436 RICHMOND ST,430 RICHMOND ST APT B,
431,RICHMOND ST,BOGALUSA,70427,RM,TELCO,FLR,1,,,110403,00001523TE,I 431 RICHMOND ST,431 RICHMOND ST RM TELCO FLR 1,
431,RICHMOND ST,BOGALUSA,70427,,,,,,,110403,00001521N8,I 431 RICHMOND ST,431 RICHMOND ST,
606,RICHMOND ST,BOGALUSA,70427,,,,,,,110403,00001523TK,I 200 RICHMOND ST,606 RICHMOND ST,
420,ST AUGUSTINE ST,BOGALUSA,70427,,,,,,,110403,0000152A5H,R 910 CAROLINA AV,420 ST AUGUSTINE ST,
429,ST AUGUSTINE ST,BOGALUSA,70427,,,,,,,110403,0000152D3V,R 826 CAROLINA AV,429 ST AUGUSTINE ST,
520,ST AUGUSTINE ST,BOGALUSA,70427,,,,,,,110403,0000151XMX,F 520 ST AUGUSTINE ST,520 ST AUGUSTINE ST,
521,ST AUGUSTINE ST,BOGALUSA,70427,,,,,,,110403,0000151YD4,F 910 MISSISSIPPI AV,521 ST AUGUSTINE ST,Y
525,ST AUGUSTINE ST,BOGALUSA,70427,,,,,,,110403,0000151YSH,R 821 CAROLINA AV,525 ST AUGUSTINE ST,
902,VIRGINIA AV,BOGALUSA,70427,,,,,,,110403,000015297K,S 902 VIRGINIA AV,902 VIRGINIA AV,
908,VIRGINIA AV,BOGALUSA,70427,,,,,,,110403,0000152812,F 520 ST AUGUSTINE ST,908 VIRGINIA AV,
912,VIRGINIA AV,BOGALUSA,70427,,,,,,,110403,000015255U,F 520 ST AUGUSTINE ST,912 VIRGINIA AV,
930,VIRGINIA AV,BOGALUSA,70427,,,,,,,110403,0000152732,F 520 ST AUGUSTINE ST,930 VIRGINIA AV,
