House Number,Street Name,Community,Zip Code,Unit Type,Unit,Floor Type,Floor,Building Type,Building,DA/PSA,OVALS Address ID,Primary_Term_Address,FAC_ADDR,Working TN Status
51,BRADSHAW DR,REMLAP,35133,,,,,,,1214,0000190GFU,P 150-19-1L HIGHWAY 79,51 BRADSHAW DR,
58,BRADSHAW DR,REMLAP,35133,,,,,,,1214,0000190JGL,P 150-19-1L HIGHWAY 79,58 BRADSHAW DR,
115,GROUNDHOG LN,TRAFFORD,35172,,,,,,,1214,0000190BP7,F 55 GROUNDHOG LN,115 GROUNDHOG LN,
19,GROUNDHOG LN,TRAFFORD,35172,,,,,,,1214,0000190H9H,F 609 REID RD,19 GROUNDHOG LN,
95,GROUNDHOG LN,TRAFFORD,35172,,,,,,,1214,0000190BP5,F 55 GROUNDHOG LN,95 GROUNDHOG LN,
160,HICKS LN,REMLAP,35133,,,,,,,1214,0000190GUM,P 150-22 HIGHWAY 79,160 HICKS LN,
198,HICKS LN,REMLAP,35133,,,,,,,1214,0000190L1C,P 150-22 HIGHWAY 79,198 HICKS LN,
49,HICKS LN,REMLAP,35133,,,,,,,1214,0000190ES9,P 150-19-3II HIGHWAY 79,49 HICKS LN,
79,HICKS LN,REMLAP,35133,,,,,,,1214,0000190J4H,P 150-19-3 HIGHWAY 79,79 HICKS LN,
83,HICKS LN,REMLAP,35133,,,,,,,1214,0000190EYC,P 150-21 HIGHWAY 79,83 HICKS LN,
115,HOLT DR,TRAFFORD,35172,,,,,,,1214,0000190GVU,PED 159-1-2 HIGHWAY 79,115 HOLT DR,
160,HOLT DR,TRAFFORD,35172,,,,,,,1214,0000190CN1,P 159-1-4 HIGHWAY 79,160 HOLT DR,
175,HOLT DR,TRAFFORD,35172,,,,,,,1214,0000190BP3,P 159-1-5 HIGHWAY 79,175 HOLT DR,
29,HOLT DR,TRAFFORD,35172,,,,,,,1214,0000190M6L,PED 159-1-1 HIGHWAY 79,29 HOLT DR,
342,HOLT DR,TRAFFORD,35172,,,,,,,1214,0000190IR4,P 159-1-9 HIGHWAY 79,342 HOLT DR,
350,HOLT DR,TRAFFORD,35172,,,,,,,1214,0000190GIA,P 159-1-9 HIGHWAY 79,350 HOLT DR,
509,HOLT DR,TRAFFORD,35172,,,,,,,1214,0000190DFT,P 159-1-12 HIGHWAY 79,509 HOLT DR,
61,HOLT DR,TRAFFORD,35172,,,,,,,1214,0000190LSQ,PED 159-1-2 HIGHWAY 79,61 HOLT DR,
116,HONEYCUTT RD,REMLAP,35133,,,,,,,1214,0000190JI3,P 150-15-10L-3 HIGHWAY 79,116 HONEYCUTT RD,
151,HONEYCUTT RD,LOCUST FORK,35097,,,,,,,1214,0000190JVA,F 151 HONEYCUTT RD,151 HONEYCUTT RD,Y
167,HONEYCUTT RD,REMLAP,35133,,,,,,,1214,0000190KNW,F 167 HONEYCUTT RD,167 HONEYCUTT RD,
183,HONEYCUTT RD,REMLAP,35133,,,,,,,1214,0000190FPY,F 183 HONEYCUTT RD,183 HONEYCUTT RD,
194,HONEYCUTT RD,REMLAP,35133,,,,,,,1214,0000190JIE,F 183 HONEYCUTT RD,194 HONEYCUTT RD,
215,HONEYCUTT RD,REMLAP,35133,,,,,,,1214,0000190IBY,R 215 HONEYCUTT RD,215 HONEYCUTT RD,
355,HONEYCUTT RD,REMLAP,35133,,,,,,,1214,0000190D88,P 150-15-10L-8 HIGHWAY 79,355 HONEYCUTT RD,Y
377,HONEYCUTT RD,REMLAP,35133,,,,,,,1214,0000190GUI,P 150-15-10L-8 HIGHWAY 79,377 HONEYCUTT RD,
480,HONEYCUTT RD,REMLAP,35133,,,,,,,1214,0000190EKQ,P 150-15-10L-8 HIGHWAY 79,480 HONEYCUTT RD,
55,HONEYCUTT RD,REMLAP,35133,,,,,,,1214,00011EBJ5Z,P 150-15-10L-3 HIGHWAY 79,55 HONEYCUTT RD,
550,HONEYCUTT RD,REMLAP,35133,,,,,,,1214,0000190DRO,P 150-15-10L-8 HIGHWAY 79,550 HONEYCUTT RD,
58,HONEYCUTT RD,LOCUST FORK,35097,,,,,,,1214,0000190GC6,P 150-15-10L-3 HIGHWAY 79,58 HONEYCUTT RD,
588,HONEYCUTT RD,REMLAP,35133,,,,,,,1214,0000190E5A,P 150-15-10L-8 HIGHWAY 79,588 HONEYCUTT RD,
81,HONEYCUTT RD,LOCUST FORK,35097,,,,,,,1214,0000190F6D,P 150-15-10L-3 HIGHWAY 79,81 HONEYCUTT RD,
82,HONEYCUTT RD,REMLAP,35133,,,,,,,1214,0000190G3G,F 1303 REID RD,82 HONEYCUTT RD,
115,MADISON DR,TRAFFORD,35172,,,,,,,1214,0000190M7I,P 3 MADISON DR,115 MADISON DR,
155,MADISON DR,TRAFFORD,35172,,,,,,,1214,0000190M7G,P 3 MADISON DRIVE,155 MADISON DR,
16,MADISON DR,TRAFFORD,35172,LOT,1,,,,,1214,0000190AYJ,P 150E15 HIGHWAY 79,16 MADISON DR LOT 1,
16,MADISON DR,TRAFFORD,35172,,,,,,,1214,0000190BPT,P 150E15 HIGHWAY 79,16 MADISON DR,
38,MADISON DR,TRAFFORD,35172,LOT,2,,,,,1214,0000190IEA,P 3 MADISON DRIVE,38 MADISON DR LOT 2,
38,MADISON DR,TRAFFORD,35172,,,,,,,1214,0000190CN8,P 3 MADISON DR,38 MADISON DR,
54,MADISON DR,TRAFFORD,35172,LOT,3,,,,,1214,0000190BV6,P 3 MADISON DRIVE,54 MADISON DR LOT 3,
54,MADISON DR,TRAFFORD,35172,,,,,,,1214,0000190CNL,P 3 MADISON DR,54 MADISON DR,
80,MADISON DR,TRAFFORD,35172,LOT,4,,,,,1214,0000190BUY,P 3 MADISON DRIVE,80 MADISON DR LOT 4,
109,PINE VIEW DR,REMLAP,35133,,,,,,,1214,0000190GUO,P 3-5 THOMPSON RD,109 PINE VIEW DR,Y
151,PINE VIEW DR,REMLAP,35133,,,,,,,1214,0000190M5N,P 3-5 THOMPSON RD,151 PINE VIEW DR,Y
198,PINE VIEW DR,REMLAP,35133,,,,,,,1214,0000190IPQ,F 1303 REID RD,198 PINE VIEW DR,
250,PINE VIEW DR,REMLAP,35133,,,,,,,1214,0000190AP4,F 280 PINE VIEW DR,250 PINE VIEW DR,
280,PINE VIEW DR,REMLAP,35133,,,,,,,1214,0000190AK4,F 280 PINE VIEW DR,280 PINE VIEW DR,
55,PINE VIEW DR,REMLAP,35133,,,,,,,1214,0000190LRB,P 3-1 THOMPSON RD,55 PINE VIEW DR,
83,PINEDALE DR,REMLAP,35133,UNIT,10,,,,,1214,0000190KO4,P 150-15-17 1-2 HIGHWAY 79,83 PINEDALE DR UNIT 10,
83,PINEDALE DR,REMLAP,35133,LOT,11,,,,,1214,0000190KNV,P 150-15-17 1-2 HIGHWAY 79,83 PINEDALE DR LOT 11,
83,PINEDALE DR,REMLAP,35133,LOT,12,,,,,1214,0000190H7D,P 150-15-17 1-2 HIGHWAY 79,83 PINEDALE DR LOT 12,
83,PINEDALE DR,REMLAP,35133,LOT,13,,,,,1214,0000190FY1,P 150-15-17 1-2 HIGHWAY 79,83 PINEDALE DR LOT 13,
83,PINEDALE DR,REMLAP,35133,LOT,14,,,,,1214,0000190AC6,P 150-15-17 1-2 HIGHWAY 79,83 PINEDALE DR LOT 14,
83,PINEDALE DR,REMLAP,35133,UNIT,15,,,,,1214,0000190AP2,P 150-15-17 1-2 HIGHWAY 79,83 PINEDALE DR UNIT 15,
83,PINEDALE DR,REMLAP,35133,UNIT,20,,,,,1214,0000190JI1,P 150-15-17 1-2 HIGHWAY 79,83 PINEDALE DR UNIT 20,
83,PINEDALE DR,REMLAP,35133,LOT,21,,,,,1214,0000190FYI,P 150-15-17 1-2 HIGHWAY 79,83 PINEDALE DR LOT 21,
83,PINEDALE DR,REMLAP,35133,UNIT,23,,,,,1214,0000190GBM,P 150-15-17 1-2 HIGHWAY 79,83 PINEDALE DR UNIT 23,
83,PINEDALE DR,REMLAP,35133,LOT,9,,,,,1214,0000190KO3,P 150-15-17 1-2 HIGHWAY 79,83 PINEDALE DR LOT 9,
85,PINEDALE DR,REMLAP,35133,LOT,12,,,,,1214,0000190GCR,P 150-15-17 1-2 HIGHWAY 79,85 PINEDALE DR LOT 12,
118,REID LN,TRAFFORD,35172,,,,,,,1214,00010UZU8A,,118 REID LN,
118,REID LN,LOCUST FORK,35097,,,,,,,1214,00010UZU8A,P 150E9 HIGHWAY 79,118 REID LN,
125,REID LN,TRAFFORD,35172,,,,,,,1214,0000190BBI,P 150E9 HIGHWAY 79,125 REID LN,
215,REID LN,LOCUST FORK,35097,,,,,,,1214,0000190BVF,P 150E9 HIGHWAY 79,215 REID LN,
235,REID LN,TRAFFORD,35172,,,,,,,1214,0000190ELZ,P 150E9 HIGHWAY 79,235 REID LN,
1045,REID RD,TRAFFORD,35172,,,,,,,1214,0000190C9Q,P 150E19 HIGHWAY 79,1045 REID RD,
105,REID RD,LOCUST FORK,35097,,,,,,,1214,0000190LSF,P 145 HIGHWAY 79,105 REID RD,
1091,REID RD,TRAFFORD,35172,,,,,,,1214,0000190CMW,P 150E21 HIGHWAY 79,1091 REID RD,
1120,REID RD,TRAFFORD,35172,,,,,,,1214,0000190IEC,P 150E21 HIGHWAY 79,1120 REID RD,
1124,REID RD,TRAFFORD,35172,,,,,,,1214,0000190GHI,P 150E21 HIGHWAY 79,1124 REID RD,
1132,REID RD,TRAFFORD,35172,,,,,,,1214,0000190C8P,P 150E21 HIGHWAY 79,1132 REID RD,
1160,REID RD,TRAFFORD,35172,,,,,,,1214,0000190HZF,P 150E22 HWY 79,1160 REID RD,
1172,REID RD,TRAFFORD,35172,,,,,,,1214,0000190D1W,150E23 HIGHWAY 79,1172 REID RD,
1211,REID RD,TRAFFORD,35172,,,,,,,1214,0000190ID8,P 150E24 HIGHWAY 79,1211 REID RD,
1215,REID RD,TRAFFORD,35172,,,,,,,1214,0000190D19,P 150E24 HIGHWAY 79,1215 REID RD,
1225,REID RD,TRAFFORD,35172,UNIT,A,,,,,1214,0000ZL0OOY,P 150E24 HIGHWAY 79,1225 REID RD UNIT A,
1225,REID RD,TRAFFORD,35172,,,,,,,1214,0000190C8Q,P 150E24 HIGHWAY 79,1225 REID RD,
1245,REID RD,TRAFFORD,35172,,,,,,,1214,0000190HZL,P 150E24 HIGHWAY 79,1245 REID RD,
1302,REID RD,TRAFFORD,35172,,,,,,,1214,0000190GVA,P 150E26 HIGHWAY 79,1302 REID RD,
1303,REID RD,TRAFFORD,35172,,,,,,,1214,0000190HLQ,F 1303 REID RD,1303 REID RD,
144,REID RD,TRAFFORD,35172,UNIT,GIGE,,,,,1214,0000190BBQ,GIGE 1214A P 144 1-3.3 REID RD,144 REID RD UNIT GIGE,
144 1-3,REID RD,TRAFFORD,35172,UNIT,RLA,,,,,1214,00011DFMNI,RLA P 144 1-3 REID RD,144 1-3 REID RD UNIT RLA,
253,REID RD,TRAFFORD,35172,,,,,,,1214,0000190IDA,P 147 HIGHWAY 79,253 REID RD,
290,REID RD,TRAFFORD,35172,,,,,,,1214,0000190D1Y,P 148 HIGHWAY 79,290 REID RD,
357,REID RD,LOCUST FORK,35097,,,,,,,1214,0000190D0P,P 150 HIGHWAY 79,357 REID RD,
387,REID RD,LOCUST FORK,35097,,,,,,,1214,0000190HMG,P 150 HIGHWAY 79,387 REID RD,
391,REID RD,TRAFFORD,35172,,,,,,,1214,0000190M7M,P 150 HIGHWAY 79,391 REID RD,
424,REID RD,LOCUST FORK,35097,,,,,,,1214,0000190J66,F 424 REID RD,424 REID RD,
424,REID RD,TRAFFORD,35172,,,,,,,1214,0000190J66,F 424 REID RD,424 REID RD,
455,REID RD,TRAFFORD,35172,,,,,,,1214,0000190C9M,F 455 REID RD,455 REID RD,
475,REID RD,TRAFFORD,35172,,,,,,,1214,0000190HMM,P 150E13 HIGHWAY 79,475 REID RD,
495,REID RD,TRAFFORD,35172,,,,,,,1214,0000190E82,F 495 REID RD,495 REID RD,
515,REID RD,TRAFFORD,35172,,,,,,,1214,0000190DES,F 535 REID RD,515 REID RD,
535,REID RD,TRAFFORD,35172,,,,,,,1214,0000190C9C,F 535 REID RD,535 REID RD,
594,REID RD,TRAFFORD,35172,,,,,,,1214,0000190H9S,F 609 REID RD,594 REID RD,
609,REID RD,TRAFFORD,35172,,,,,,,1214,0000190EL8,F 609 REID RD,609 REID RD,
614,REID RD,TRAFFORD,35172,,,,,,,1214,0000190J5V,P 150E6 HIGHWAY 79,614 REID RD,
638,REID RD,TRAFFORD,35172,,,,,,,1214,0000190C94,P 150E7 HIGHWAY 79,638 REID RD,
647,REID RD,TRAFFORD,35172,,,,,,,1214,0000190GVL,P 150E7 HIGHWAY 79,647 REID RD,
710,REID RD,TRAFFORD,35172,,,,,,,1214,0000190D1Q,P 150E9 HIGHWAY 79,710 REID RD,
740,REID RD,TRAFFORD,35172,,,,,,,1214,0000190I02,P 150E9 HIGHWAY 79,740 REID RD,
831,REID RD,TRAFFORD,35172,,,,,,,1214,0000190GIJ,P 150E13 HIGHWAY 79,831 REID RD,
835,REID RD,TRAFFORD,35172,,,,,,,1214,0000190HLK,P 150E13 HIGHWAY 79,835 REID RD,
838,REID RD,TRAFFORD,35172,LOT,1,,,,,1214,0000190M6W,P 150E13 HIGHWAY 79,838 REID RD LOT 1,
838,REID RD,TRAFFORD,35172,LOT,2,,,,,1214,0000190IE5,P 150E13 HIGHWAY 79,838 REID RD LOT 2,
838,REID RD,TRAFFORD,35172,LOT,3,,,,,1214,0000190BCJ,P 150E13 HIGHWAY 79,838 REID RD LOT 3,
838,REID RD,TRAFFORD,35172,LOT,4,,,,,1214,0000190M7H,P 150E13 HIGHWAY 79,838 REID RD LOT 4,
838,REID RD,TRAFFORD,35172,,,,,,,1214,0000190E7I,P 150E13 HIGHWAY 79,838 REID RD,
840,REID RD,TRAFFORD,35172,,,,,,,1214,0000190IR5,P 150E13 HIGHWAY 79,840 REID RD,
857,REID RD,TRAFFORD,35172,,,,,,,1214,0000OOL1PQ,P 150E13 HIGHWAY 79,857 REID RD,
889,REID RD,TRAFFORD,35172,,,,,,,1214,0000190LSL,P 1 MADISON DRIVE,889 REID RD,
889,REID RD,TRAFFORD,35172,,,,,,,1214,0000190LSL,P 150-15-18L HIGHWAY 79,889 REID RD,
933,REID RD,TRAFFORD,35172,,,,,,,1214,0000190CN5,P 150E17 HIGHWAY 79,933 REID RD,
281,SPOONHANDLE RD,TRAFFORD,35172,,,,,,,1214,0000190D12,P 159-8 HIGHWAY 79,281 SPOONHANDLE RD,
375,SPOONHANDLE RD,TRAFFORD,35172,,,,,,,1214,0000190M7O,P 159-8 HIGHWAY 79,375 SPOONHANDLE RD,
425,SPOONHANDLE RD,TRAFFORD,35172,,,,,,,1214,0000190BCC,F 425 SPOONHANDLE RD,425 SPOONHANDLE RD,
489,SPOONHANDLE RD,TRAFFORD,35172,,,,,,,1214,00010FZG4J,P 157 HIGHWAY 79,489 SPOONHANDLE RD,
567,SPOONHANDLE RD,TRAFFORD,35172,,,,,,,1214,0000190BC1,P 159-3 HIGHWAY 79,567 SPOONHANDLE RD,
575,SPOONHANDLE RD,TRAFFORD,35172,,,,,,,1214,0000190E7O,P 157 HIGHWAY 79,575 SPOONHANDLE RD,Y
607,SPOONHANDLE RD,TRAFFORD,35172,,,,,,,1214,0000190E7J,P 159-2 HIGHWAY 79,607 SPOONHANDLE RD,
610,SPOONHANDLE RD,TRAFFORD,35172,,,,,,,1214,0000190BI3,P 159-2 HIGHWAY 79,610 SPOONHANDLE RD,
642,SPOONHANDLE RD,TRAFFORD,35172,,,,,,,1214,0000190D1M,P 159-1 HIGHWAY 79,642 SPOONHANDLE RD,
677,SPOONHANDLE RD,TRAFFORD,35172,,,,,,,1214,0000190AXM,P 159 HIGHWAY 79,677 SPOONHANDLE RD,
715,SPOONHANDLE RD,TRAFFORD,35172,,,,,,,1214,0000190GWK,P 160 HIGHWAY 79,715 SPOONHANDLE RD,
1844,SPUNKY HOLLOW RD,REMLAP,35133,,,,,,,1214,0000190K95,P 150-19-5 HIGHWAY 79,1844 SPUNKY HOLLOW RD,
1855,SPUNKY HOLLOW RD,REMLAP,35133,,,,,,,1214,0000190FK5,P 150-19-5 HIGHWAY 79,1855 SPUNKY HOLLOW RD,
1872,SPUNKY HOLLOW RD,REMLAP,35133,,,,,,,1214,0000190AP3,P 150-19-5 HIGHWAY 79,1872 SPUNKY HOLLOW RD,
1953,SPUNKY HOLLOW RD,REMLAP,35133,LOT,1,,,,,1214,0000190D83,NF 1953 SPUNKY HOLLOW RD,1953 SPUNKY HOLLOW RD LOT 1,
1953,SPUNKY HOLLOW RD,REMLAP,35133,LOT,10,,,,,1214,0000190L0Y,NF 1953 SPUNKY HOLLOW RD,1953 SPUNKY HOLLOW RD LOT 10,
1953,SPUNKY HOLLOW RD,REMLAP,35133,LOT,11,,,,,1214,0000190KNI,P 150-21 HIGHWAY 79,1953 SPUNKY HOLLOW RD LOT 11,
1953,SPUNKY HOLLOW RD,REMLAP,35133,LOT,12,,,,,1214,0000190ICT,NF 1953 SPUNKY HOLLOW RD,1953 SPUNKY HOLLOW RD LOT 12,
1953,SPUNKY HOLLOW RD,REMLAP,35133,LOT,13,,,,,1214,0000190ABF,NF 1953 SPUNKY HOLLOW RD,1953 SPUNKY HOLLOW RD LOT 13,
1953,SPUNKY HOLLOW RD,REMLAP,35133,LOT,14,,,,,1214,0000190M4W,P 150-19-3 HIGHWAY 79,1953 SPUNKY HOLLOW RD LOT 14,
1953,SPUNKY HOLLOW RD,REMLAP,35133,LOT,15-A,,,,,1214,0000190ESR,NF 1953 SPUNKY HOLLOW RD,1953 SPUNKY HOLLOW RD LOT 15-A,
1953,SPUNKY HOLLOW RD,REMLAP,35133,LOT,15-B,,,,,1214,0000190LEY,NF 1953 SPUNKY HOLLOW RD,1953 SPUNKY HOLLOW RD LOT 15-B,
1953,SPUNKY HOLLOW RD,REMLAP,35133,LOT,16,,,,,1214,0000190E0L,P 150-19-3 HIGHWAY 79,1953 SPUNKY HOLLOW RD LOT 16,
1953,SPUNKY HOLLOW RD,REMLAP,35133,LOT,18,,,,,1214,0000190D86,P 150-19-3 HIGHWAY 79,1953 SPUNKY HOLLOW RD LOT 18,
1953,SPUNKY HOLLOW RD,REMLAP,35133,LOT,2,,,,,1214,0000190HYF,NF 1953 SPUNKY HOLLOW RD,1953 SPUNKY HOLLOW RD LOT 2,
1953,SPUNKY HOLLOW RD,REMLAP,35133,LOT,22,,,,,1214,0000190F6R,P 150-19-3 HIGHWAY 79,1953 SPUNKY HOLLOW RD LOT 22,
1953,SPUNKY HOLLOW RD,REMLAP,35133,LOT,23,,,,,1214,0000190GGK,P 150-19-3 HIGHWAY 79,1953 SPUNKY HOLLOW RD LOT 23,
1953,SPUNKY HOLLOW RD,REMLAP,35133,LOT,25,,,,,1214,0000190K9A,P 150-19-3 HIGHWAY 79,1953 SPUNKY HOLLOW RD LOT 25,
1953,SPUNKY HOLLOW RD,REMLAP,35133,LOT,27,,,,,1214,0000190JHP,NF 1953 SPUNKY HOLLOW RD,1953 SPUNKY HOLLOW RD LOT 27,
1953,SPUNKY HOLLOW RD,REMLAP,35133,LOT,29,,,,,1214,0000190F6I,P 150-19-3 HIGHWAY 79,1953 SPUNKY HOLLOW RD LOT 29,
1953,SPUNKY HOLLOW RD,REMLAP,35133,LOT,3,,,,,1214,0000190K8C,NF 1953 SPUNKY HOLLOW RD,1953 SPUNKY HOLLOW RD LOT 3,
1953,SPUNKY HOLLOW RD,REMLAP,35133,LOT,31,,,,,1214,0000190G4J,P 150-19-3 HIGHWAY 79,1953 SPUNKY HOLLOW RD LOT 31,
1953,SPUNKY HOLLOW RD,REMLAP,35133,LOT,5,,,,,1214,0000190KMQ,NF 1953 SPUNKY HOLLOW RD,1953 SPUNKY HOLLOW RD LOT 5,
1953,SPUNKY HOLLOW RD,REMLAP,35133,LOT,6,,,,,1214,0000190DS1,NF 1953 SPUNKY HOLLOW RD,1953 SPUNKY HOLLOW RD LOT 6,
1953,SPUNKY HOLLOW RD,REMLAP,35133,LOT,7,,,,,1214,0000190FK0,NF 1953 SPUNKY HOLLOW RD,1953 SPUNKY HOLLOW RD LOT 7,
1953,SPUNKY HOLLOW RD,REMLAP,35133,LOT,8,,,,,1214,0000190B35,NF 1953 SPUNKY HOLLOW RD,1953 SPUNKY HOLLOW RD LOT 8,
1953,SPUNKY HOLLOW RD,REMLAP,35133,LOT,9,,,,,1214,0000190GBT,NF 1953 SPUNKY HOLLOW RD,1953 SPUNKY HOLLOW RD LOT 9,
1953,SPUNKY HOLLOW RD,REMLAP,35133,,,,,,,1214,0000190KNQ,NF 1953 SPUNKY HOLLOW RD,1953 SPUNKY HOLLOW RD,
2015,SPUNKY HOLLOW RD,REMLAP,35133,,,,,,,1214,0000190LS6,P 150-19-1L HIGHWAY 79,2015 SPUNKY HOLLOW RD,
2034,SPUNKY HOLLOW RD,REMLAP,35133,,,,,,,1214,0000190FPQ,P 150-19-1 HIGHWAY 79,2034 SPUNKY HOLLOW RD,
2040,SPUNKY HOLLOW RD,REMLAP,35133,,,,,,,1214,0000190J42,P 150-19-1L HIGHWAY 79,2040 SPUNKY HOLLOW RD,
2050,SPUNKY HOLLOW RD,REMLAP,35133,,,,,,,1214,0000190E6J,P 150-19-1L HIGHWAY 79,2050 SPUNKY HOLLOW RD,
2066,SPUNKY HOLLOW RD,REMLAP,35133,,,,,,,1214,0000190ES8,P 150-19-3 HIGHWAY 79,2066 SPUNKY HOLLOW RD,
2083,SPUNKY HOLLOW RD,REMLAP,35133,,,,,,,1214,0000190LDJ,P 150-19-1L HIGHWAY 79,2083 SPUNKY HOLLOW RD,
2518,SPUNKY HOLLOW RD,REMLAP,35133,,,,,,,1214,0000190LD8,P 150-18 1-2 HIGHWAY 79,2518 SPUNKY HOLLOW RD,
2520,SPUNKY HOLLOW RD,REMLAP,35133,,,,,,,1214,0000190LRX,P 150-18 1-2 HIGHWAY 79,2520 SPUNKY HOLLOW RD,
2524,SPUNKY HOLLOW RD,REMLAP,35133,,,,,,,1214,0000190KM5,P 150-18 1-2 HIGHWAY 79,2524 SPUNKY HOLLOW RD,
2562,SPUNKY HOLLOW RD,REMLAP,35133,,,,,,,1214,0000190IPW,F 2562 SPUNKY HOLLOW RD,2562 SPUNKY HOLLOW RD,
2610,SPUNKY HOLLOW RD,REMLAP,35133,,,,,,,1214,0000190DS3,P 150-17 HIGHWAY 79,2610 SPUNKY HOLLOW RD,
2639,SPUNKY HOLLOW RD,REMLAP,35133,,,,,,,1214,0000190DMM,P 150-17 HIGHWAY 79,2639 SPUNKY HOLLOW RD,
2662,SPUNKY HOLLOW RD,REMLAP,35133,,,,,,,1214,0000190JV6,P 150-17 HIGHWAY 79,2662 SPUNKY HOLLOW RD,
2718,SPUNKY HOLLOW RD,REMLAP,35133,,,,,,,1214,0000190IC6,F 2768 SPUNKY HOLLOW RD,2718 SPUNKY HOLLOW RD,
2768,SPUNKY HOLLOW RD,REMLAP,35133,LOT,1,,,,,1214,0000190JI0,F 2768 SPUNKY HOLLOW RD,2768 SPUNKY HOLLOW RD LOT 1,
2768,SPUNKY HOLLOW RD,REMLAP,35133,,,,,,,1214,0000190FQ6,F 2768 SPUNKY HOLLOW RD,2768 SPUNKY HOLLOW RD,
2832,SPUNKY HOLLOW RD,REMLAP,35133,,,,,,,1214,0000190ESJ,P 150-19-3 HIGHWAY 79,2832 SPUNKY HOLLOW RD,
2836,SPUNKY HOLLOW RD,REMLAP,35133,,,,,,,1214,0000190GUU,P 150-19-3 HIGHWAY 79,2836 SPUNKY HOLLOW RD,
2838,SPUNKY HOLLOW RD,REMLAP,35133,,,,,,,1214,0000190KO0,F 2848 SPUNKY HOLLOW RD,2838 SPUNKY HOLLOW RD,
2848,SPUNKY HOLLOW RD,REMLAP,35133,,,,,,,1214,0000190JW2,F 2848 SPUNKY HOLLOW RD,2848 SPUNKY HOLLOW RD,
2948,SPUNKY HOLLOW RD,REMLAP,35133,,,,,,,1214,0000190AQ4,F 1303 REID RD,2948 SPUNKY HOLLOW RD,
2950,SPUNKY HOLLOW RD,REMLAP,35133,,,,,,,1214,0000ZL56L9,F 1303 REID RD,2950 SPUNKY HOLLOW RD,
2951,SPUNKY HOLLOW RD,REMLAP,35133,,,,,,,1214,0000ZL56L8,F 1303 REID RD,2951 SPUNKY HOLLOW RD,
2985,SPUNKY HOLLOW RD,REMLAP,35133,,,,,,,1214,0000190J4L,F 1303 REID RD,2985 SPUNKY HOLLOW RD,
3046,SPUNKY HOLLOW RD,REMLAP,35133,UNIT,2,,,,,1214,000117O19A,P 150-15-4L HIGHWAY 79,3046 SPUNKY HOLLOW RD UNIT 2,
3046,SPUNKY HOLLOW RD,REMLAP,35133,,,,,,,1214,0000190K9U,P 150-15-4L HIGHWAY 79,3046 SPUNKY HOLLOW RD,
3060,SPUNKY HOLLOW RD,REMLAP,35133,,,,,,,1214,0000190GC1,P 150-15-4L HIGHWAY 79,3060 SPUNKY HOLLOW RD,
3288,SPUNKY HOLLOW RD,REMLAP,35133,,,,,,,1214,0000190AP0,P 150-15-9L HIGHWAY 79,3288 SPUNKY HOLLOW RD,
3418,SPUNKY HOLLOW RD,REMLAP,35133,,,,,,,1214,0000190L0J,P 150-15-13 HIGHWAY 79,3418 SPUNKY HOLLOW RD,
3461,SPUNKY HOLLOW RD,REMLAP,35133,,,,,,,1214,0000190DSH,P 150-15-13 HIGHWAY 79,3461 SPUNKY HOLLOW RD,
3530,SPUNKY HOLLOW RD,REMLAP,35133,,,,,,,1214,0000190HY1,P 150-15-15L HIGHWAY 79,3530 SPUNKY HOLLOW RD,
3560,SPUNKY HOLLOW RD,REMLAP,35133,,,,,,,1214,0000190M5Y,P 150-15-16-1 HIGHWAY 79,3560 SPUNKY HOLLOW RD,Y
3567,SPUNKY HOLLOW RD,REMLAP,35133,,,,,,,1214,0000190KNS,P 150-15-16-1 HIGHWAY 79,3567 SPUNKY HOLLOW RD,
3580,SPUNKY HOLLOW RD,REMLAP,35133,,,,,,,1214,0000190M5C,P 150-15-16-1 HIGHWAY 79,3580 SPUNKY HOLLOW RD,
3590,SPUNKY HOLLOW RD,REMLAP,35133,,,,,,,1214,0000190HY8,F 3590 SPUNKY HOLLOW RD,3590 SPUNKY HOLLOW RD,
3616,SPUNKY HOLLOW RD,REMLAP,35133,,,,,,,1214,00001QRLPL,F 3590 SPUNKY HOLLOW RD,3616 SPUNKY HOLLOW RD,
3618,SPUNKY HOLLOW RD,REMLAP,35133,,,,,,,1214,0000190IQ8,F 3590 SPUNKY HOLLOW RD,3618 SPUNKY HOLLOW RD,
3622,SPUNKY HOLLOW RD,REMLAP,35133,,,,,,,1214,0000190GUQ,F 3590 SPUNKY HOLLOW RD,3622 SPUNKY HOLLOW RD,
3628,SPUNKY HOLLOW RD,REMLAP,35133,,,,,,,1214,0000190GC7,P 150-15L16 HIGHWAY 79,3628 SPUNKY HOLLOW RD,
3635,SPUNKY HOLLOW RD,REMLAP,35133,,,,,,,1214,0000190AP8,P 150-15-18L HIGHWAY 79,3635 SPUNKY HOLLOW RD,
3656,SPUNKY HOLLOW RD,REMLAP,35133,,,,,,,1214,0000190LRH,P 150-15-17 HWY 79,3656 SPUNKY HOLLOW RD,
3672,SPUNKY HOLLOW RD,REMLAP,35133,,,,,,,1214,0000190ESX,P 150-15-17 HWY 79,3672 SPUNKY HOLLOW RD,
3745,SPUNKY HOLLOW RD,REMLAP,35133,,,,,,,1214,0000190GCY,P 150-15-18L HIGHWAY 79,3745 SPUNKY HOLLOW RD,
3754,SPUNKY HOLLOW RD,REMLAP,35133,LOT,4,,,,,1214,0000190AC0,P 150-15-18L HIGHWAY 79,3754 SPUNKY HOLLOW RD LOT 4,
3754,SPUNKY HOLLOW RD,REMLAP,35133,,,,,,,1214,0000190AP9,P 150-15-18L HIGHWAY 79,3754 SPUNKY HOLLOW RD,
3755,SPUNKY HOLLOW RD,REMLAP,35133,,,,,,,1214,0000190LR5,P 150-15-18L HIGHWAY 79,3755 SPUNKY HOLLOW RD,
3766,SPUNKY HOLLOW RD,REMLAP,35133,LOT,3,,,,,1214,0000190EE8,P 150-15-18L HIGHWAY 79,3766 SPUNKY HOLLOW RD LOT 3,
3766,SPUNKY HOLLOW RD,REMLAP,35133,UNIT,LOT 3,,,,,1214,00010DV57I,P 150-15-18L HIGHWAY 79,3766 SPUNKY HOLLOW RD UNIT LOT 3,
3766,SPUNKY HOLLOW RD,REMLAP,35133,,,,,,,1214,0000190L10,P 150-15-18L HIGHWAY 79,3766 SPUNKY HOLLOW RD,
3800,SPUNKY HOLLOW RD,REMLAP,35133,,,,,,,1214,0000190IPX,P 150-15-21L HIGHWAY 79,3800 SPUNKY HOLLOW RD,Y
3866,SPUNKY HOLLOW RD,REMLAP,35133,APT,3,,,,,1214,0000190LEA,P 150-15-18L HIGHWAY 79,3866 SPUNKY HOLLOW RD APT 3,
3909,SPUNKY HOLLOW RD,REMLAP,35133,,,,,,,1214,0000190F6O,P 150-15-24 HWY 79,3909 SPUNKY HOLLOW RD,
3914,SPUNKY HOLLOW RD,REMLAP,35133,,,,,,,1214,0000190ESB,P 150-15-21L HIGHWAY 79,3914 SPUNKY HOLLOW RD,
3916,SPUNKY HOLLOW RD,REMLAP,35133,,,,,,,1214,0000190E0W,P 150-15-21L HIGHWAY 79,3916 SPUNKY HOLLOW RD,
3945,SPUNKY HOLLOW RD,REMLAP,35133,,,,,,,1214,0000190B37,P 150-15-24 HWY 79,3945 SPUNKY HOLLOW RD,
3983,SPUNKY HOLLOW RD,REMLAP,35133,,,,,,,1214,0000190F6M,P 150-15-25L25 HIGHWAY 79,3983 SPUNKY HOLLOW RD,
4075,SPUNKY HOLLOW RD,REMLAP,35133,APT,A,,,,,1214,0000190K84,P 150-15-27 HWY 79,4075 SPUNKY HOLLOW RD APT A,
4075,SPUNKY HOLLOW RD,REMLAP,35133,,,,,,,1214,0000190E6D,P 150-15-27 HWY 79,4075 SPUNKY HOLLOW RD,
4155,SPUNKY HOLLOW RD,REMLAP,35133,,,,,,,1214,0000190FQ5,P 150-15-28L HIGHWAY 79,4155 SPUNKY HOLLOW RD,
4165,SPUNKY HOLLOW RD,REMLAP,35133,,,,,,,1214,0000190LRE,P 150-15-28L HIGHWAY 79,4165 SPUNKY HOLLOW RD,
25465,STATE HWY 79,TRAFFORD,35172,,,,,,,1214,0000190BVN,P 3 WATER OAK DR,25465 STATE HWY 79,
25564,STATE HWY 79,TRAFFORD,35172,,,,,,,1214,0000190BP6,P 145 HIGHWAY 79,25564 STATE HWY 79,
25585,STATE HWY 79,TRAFFORD,35172,,,,,,,1214,0000190IR1,P 145 HIGHWAY 79,25585 STATE HWY 79,
25609,STATE HWY 79,TRAFFORD,35172,,,,,,,1214,0000190CNQ,P 145 HIGHWAY 79,25609 STATE HWY 79,
25762,STATE HWY 79,TRAFFORD,35172,,,,,,,1214,0000190CO4,P 146 HIGHWAY 79,25762 STATE HWY 79,
25920,STATE HWY 79,TRAFFORD,35172,,,,,,,1214,0000190AYA,P 154 HIGHWAY 79,25920 STATE HWY 79,
26011,STATE HWY 79,TRAFFORD,35172,,,,,,,1214,0000190BCK,P 154 HIGHWAY 79,26011 STATE HWY 79,
26016,STATE HWY 79,TRAFFORD,35172,,,,,,,1214,0000190H97,P 154 1-2 HIGHWAY 79,26016 STATE HWY 79,
26031,STATE HWY 79,TRAFFORD,35172,,,,,,,1214,0000190H9L,P 154 1-2 HIGHWAY 79,26031 STATE HWY 79,
26035,STATE HWY 79,TRAFFORD,35172,,,,,,,1214,0000190IDI,P 154 1-2 HIGHWAY 79,26035 STATE HWY 79,
26044,STATE HWY 79,TRAFFORD,35172,,,,,,,1214,0000190C8V,P 154 1-2 HIGHWAY 79,26044 STATE HWY 79,
26048,STATE HWY 79,TRAFFORD,35172,,,,,,,1214,0000190J5J,P 154 1-2 HIGHWAY 79,26048 STATE HWY 79,
26052,STATE HWY 79,TRAFFORD,35172,,,,,,,1214,0000190ELA,P 155 HIGHWAY 79,26052 STATE HWY 79,
26095,STATE HWY 79,TRAFFORD,35172,,,,,,,1214,0000190AY5,P 154 1-2 HIGHWAY 79,26095 STATE HWY 79,
26127,STATE HWY 79,TRAFFORD,35172,,,,,,,1214,0000190D0Z,P 157 HIGHWAY 79,26127 STATE HWY 79,
26131,STATE HWY 79,TRAFFORD,35172,,,,,,,1214,0000190AY4,P 157 HIGHWAY 79,26131 STATE HWY 79,
26225,STATE HWY 79,TRAFFORD,35172,,,,,,,1214,0000190AXU,P 157 HIGHWAY 79,26225 STATE HWY 79,
26246,STATE HWY 79,TRAFFORD,35172,,,,,,,1214,0000190IDY,P 157 1-2 HWY 79,26246 STATE HWY 79,Y
26250,STATE HWY 79,TRAFFORD,35172,UNIT,B,,,,,1214,00011B6YTE,P 157 1-2 HWY 79,26250 STATE HWY 79 UNIT B,
26290,STATE HWY 79,TRAFFORD,35172,,,,,,,1214,0000190BVR,P 159 HIGHWAY 79,26290 STATE HWY 79,
26449,STATE HWY 79,TRAFFORD,35172,,,,,,,1214,0000190C99,P 161 HIGHWAY 79,26449 STATE HWY 79,
26480,STATE HWY 79,TRAFFORD,35172,,,,,,,1214,0000190GVT,P 161 HIGHWAY 79,26480 STATE HWY 79,
26481,STATE HWY 79,TRAFFORD,35172,,,,,,,1214,0000190IEJ,P 161 HIGHWAY 79,26481 STATE HWY 79,
26482,STATE HWY 79,TRAFFORD,35172,,,,,,,1214,0000S819J6,,26482 STATE HWY 79,
26488,STATE HWY 79,TRAFFORD,35172,,,,,,,1214,0000190BVP,P 161 HIGHWAY 79,26488 STATE HWY 79,
26575,STATE HWY 79,TRAFFORD,35172,,,,,,,1214,0000190J5B,P 165 HIGHWAY 79,26575 STATE HWY 79,
26661,STATE HWY 79,TRAFFORD,35172,,,,,,,1214,0000190BPF,P 164 HIGHWAY 79,26661 STATE HWY 79,
26676,STATE HWY 79,TRAFFORD,35172,,,,,,,1214,0000190I08,P 164 HIGHWAY 79,26676 STATE HWY 79,
26761,STATE HWY 79,TRAFFORD,35172,,,,,,,1214,0000190GWG,P 166I HIGHWAY 79,26761 STATE HWY 79,
26810,STATE HWY 79,TRAFFORD,35172,,,,,,,1214,0000190I0H,P 166I HIGHWAY 79,26810 STATE HWY 79,
26819,STATE HWY 79,TRAFFORD,35172,,,,,,,1214,0000190HM3,P 170 HIGHWAY 79,26819 STATE HWY 79,
26826,STATE HWY 79,TRAFFORD,35172,,,,,,,1214,0000190HLU,P 166I HIGHWAY 79,26826 STATE HWY 79,
26966,STATE HWY 79,TRAFFORD,35172,,,,,,,1214,0000190GHQ,P 171 HIGHWAY 79,26966 STATE HWY 79,
27047,STATE HWY 79,TRAFFORD,35172,,,,,,,1214,0000190LSI,P 173I HIGHWAY 79,27047 STATE HWY 79,
118,TAWBUSH LN,LOCUST FORK,35097,,,,,,,1214,0000190CNJ,P 159-16 HIGHWAY 79,118 TAWBUSH LN,
131,TAWBUSH LN,LOCUST FORK,35097,,,,,,,1214,0000190BV5,P 159-16 HIGHWAY 79,131 TAWBUSH LN,
56,TAWBUSH LN,TRAFFORD,35172,,,,,,,1214,000020JZIC,P 159-3 HIGHWAY 79,56 TAWBUSH LN,
9,TAWBUSH LN,LOCUST FORK,35097,,,,,,,1214,0000190GV8,P 159-16 HIGHWAY 79,9 TAWBUSH LN,
173,TAWBUSH RD,LOCUST FORK,35097,,,,,,,1214,0000190BVL,F 184 TAWBUSH LN,173 TAWBUSH RD,
184,TAWBUSH RD,TRAFFORD,35172,,,,,,,1214,0000190BPE,F 184 TAWBUSH LN,184 TAWBUSH RD,
242,TAWBUSH RD,LOCUST FORK,35097,,,,,,,1214,0000190BP9,P 159-13 HIGHWAY 79,242 TAWBUSH RD,
248,TAWBUSH RD,LOCUST FORK,35097,,,,,,,1214,0000190IDD,P 159-13 HIGHWAY 79,248 TAWBUSH RD,
254,TAWBUSH RD,LOCUST FORK,35097,,,,,,,1214,0000190BPB,P 159-13 HIGHWAY 79,254 TAWBUSH RD,
263,TAWBUSH RD,LOCUST FORK,35097,,,,,,,1214,0000190GVH,P 159-13 HIGHWAY 79,263 TAWBUSH RD,Y
266,TAWBUSH RD,TRAFFORD,35172,,,,,,,1214,0000190GW8,P 159-13 HIGHWAY 79,266 TAWBUSH RD,
388,TAWBUSH RD,TRAFFORD,35172,,,,,,,1214,00010VZJ0J,F 496 TAWBUSH RD,388 TAWBUSH RD,
492,TAWBUSH RD,LOCUST FORK,35097,,,,,,,1214,0000190BI6,F 526 TAWBUSH RD,492 TAWBUSH RD,
496,TAWBUSH RD,TRAFFORD,35172,,,,,,,1214,0000190BBM,F 496 TAWBUSH RD,496 TAWBUSH RD,
526,TAWBUSH RD,LOCUST FORK,35097,,,,,,,1214,0000190HM7,F 526 TAWBUSH RD,526 TAWBUSH RD,
540,TAWBUSH RD,TRAFFORD,35172,,,,,,,1214,0000190H90,F 526 TAWBUSH RD,540 TAWBUSH RD,
576,TAWBUSH RD,LOCUST FORK,35097,,,,,,,1214,0000190DFB,F 526 TAWBUSH RD,576 TAWBUSH RD,
594,TAWBUSH RD,LOCUST FORK,35097,,,,,,,1214,0000190CNT,F 526 TAWBUSH RD,594 TAWBUSH RD,
608,TAWBUSH RD,TRAFFORD,35172,,,,,,,1214,0000190H8Q,F 184 TAWBUSH LN,608 TAWBUSH RD,
626,TAWBUSH RD,LOCUST FORK,35097,,,,,,,1214,0000190IS2,F 608 TAWBUSH RD,626 TAWBUSH RD,
30,WALKER DR,REMLAP,35133,,,,,,,1214,0000190FYL,NF 1953 SPUNKY HOLLOW RD,30 WALKER DR,
307,WALLS RD,REMLAP,35133,,,,,,,1214,00010E4VTK,P 150-15-10L-8 HIGHWAY 79,307 WALLS RD,
310,WALLS RD,REMLAP,35133,,,,,,,1214,0000190EXK,P 150-15-10L-8 HIGHWAY 79,310 WALLS RD,
311,WALLS RD,REMLAP,35133,,,,,,,1214,0000190G4H,P 150-15-10L-8 HIGHWAY 79,311 WALLS RD,
106,WATER OAK DR,TRAFFORD,35172,,,,,,,1214,0000190IE8,P 3 WATER OAK DR,106 WATER OAK DR,
107,WATER OAK DR,TRAFFORD,35172,,,,,,,1214,0000190GHM,P 3 WATER OAK DR,107 WATER OAK DR,
108,WATER OAK DR,TRAFFORD,35172,,,,,,,1214,0000190M7F,P 3 WATER OAK DR,108 WATER OAK DR,
111,WATER OAK DR,TRAFFORD,35172,,,,,,,1214,0000190HZB,P 4 WATER OAK DR,111 WATER OAK DR,Y
121,WATER OAK DR,TRAFFORD,35172,,,,,,,1214,0000190J5Z,P 150E24S5 HIGHWAY 79,121 WATER OAK DR,
133,WATER OAK DR,TRAFFORD,35172,,,,,,,1214,0000190HLB,P 150E24S5 HIGHWAY 79,133 WATER OAK DR,Y
148,WATER OAK DR,TRAFFORD,35172,,,,,,,1214,0000190M6Y,P 150E24S5 HIGHWAY 79,148 WATER OAK DR,
149,WATER OAK DR,TRAFFORD,35172,,,,,,,1214,0000190CA0,P 150E24S5 HIGHWAY 79,149 WATER OAK DR,
28,WATER OAK DR,TRAFFORD,35172,,,,,,,1214,0000190AYM,P 1I WATER OAK DR,28 WATER OAK DR,
35,WATER OAK DR,TRAFFORD,35172,,,,,,,1214,0000190GII,P 1II WATER OAK DR,35 WATER OAK DR,
39,WATER OAK DR,TRAFFORD,35172,,,,,,,1214,0000190IRC,P 2 WATER OAK DR,39 WATER OAK DR,
49,WATER OAK DR,TRAFFORD,35172,,,,,,,1214,0000190LSK,P 2 WATER OAK DR,49 WATER OAK DR,
5,WATER OAK DR,TRAFFORD,35172,,,,,,,1214,0000190M6M,P 150E24 HIGHWAY 79,5 WATER OAK DR,
50,WATER OAK DR,TRAFFORD,35172,,,,,,,1214,0000190CNX,P 3 WATER OAK DR,50 WATER OAK DR,
7,WATER OAK DR,TRAFFORD,35172,,,,,,,1214,0000190GHU,P 150E24 HIGHWAY 79,7 WATER OAK DR,
97,WATER OAK DR,TRAFFORD,35172,,,,,,,1214,0000190BVC,P 3 WATER OAK DR,97 WATER OAK DR,
130,YOUNGBLOOD DR,TRAFFORD,35172,,,,,,,1214,0000190M6Q,P 157 1-2 3 HIGHWAY 79,130 YOUNGBLOOD DR,
175,YOUNGBLOOD DR,TRAFFORD,35172,,,,,,,1214,0000190IDW,P 161 HIGHWAY 79,175 YOUNGBLOOD DR,
185,YOUNGBLOOD DR,TRAFFORD,35172,,,,,,,1214,0000190BHL,P 161 HIGHWAY 79,185 YOUNGBLOOD DR,
36,YOUNGBLOOD DR,TRAFFORD,35172,,,,,,,1214,0000190CO0,P 157 1-2 2 HIGHWAY 79,36 YOUNGBLOOD DR,
71,YOUNGBLOOD DR,TRAFFORD,35172,,,,,,,1214,0000190I04,P 157 1-2 3 HIGHWAY 79,71 YOUNGBLOOD DR,
39,YOUNGBLOOD LN,REMLAP,35133,,,,,,,1214,0000190EF3,P 150-19-2 HIGHWAY 79,39 YOUNGBLOOD LN,
41,YOUNGBLOOD LN,REMLAP,35133,,,,,,,1214,0000190DRN,P 150-19-3 HIGHWAY 79,41 YOUNGBLOOD LN,
87,YOUNGBLOOD LN,REMLAP,35133,,,,,,,1214,0000190EEV,P 150-19-3 HIGHWAY 79,87 YOUNGBLOOD LN,
