House Number,Street Name,Community,Zip Code,Unit Type,Unit,Floor Type,Floor,Building Type,Building,DA/PSA,OVALS Address ID,Primary_Term_Address,FAC_ADDR,Working TN Status
"5601","NW 106TH WAY","CRL SPRNGS","33076","","","","","","","141408","=""00000EVO70""","F 5649 NW 106TH WAY","5601 NW 106TH WAY",""
"5616","NW 106TH WAY","CRL SPRNGS","33076","","","","","","","141408","=""00000EVG16""","F 5648 NW 106TH WAY","5616 NW 106TH WAY",""
"5617","NW 106TH WAY","CRL SPRNGS","33076","","","","","","","141408","=""00000EVMXV""","F 5649 NW 106TH WAY","5617 NW 106TH WAY",""
"5632","NW 106TH WAY","CRL SPRNGS","33076","","","","","","","141408","=""00000EVHB7""","F 5648 NW 106TH WAY","5632 NW 106TH WAY",""
"5633","NW 106TH WAY","CRL SPRNGS","33076","","","","","","","141408","=""00000EVH49""","F 5649 NW 106TH WAY","5633 NW 106TH WAY",""
"5648","NW 106TH WAY","CRL SPRNGS","33076","","","","","","","141408","=""00000EVMRY""","F 5648 NW 106TH WAY","5648 NW 106TH WAY",""
"5649","NW 106TH WAY","CRL SPRNGS","33076","","","","","","","141408","=""00000EVHQM""","F 5649 NW 106TH WAY","5649 NW 106TH WAY",""
"5664","NW 106TH WAY","CRL SPRNGS","33076","","","","","","","141408","=""00000EVLAX""","F 5648 NW 106TH WAY","5664 NW 106TH WAY",""
"5665","NW 106TH WAY","CRL SPRNGS","33076","","","","","","","141408","=""00000EVIE1""","F 5649 NW 106TH WAY","5665 NW 106TH WAY",""
"5603","NW 107TH AV","CRL SPRNGS","33076","","","","","","","141408","=""00000EVGMX""","F 5635 NW 107TH AV","5603 NW 107TH AV",""
"5618","NW 107TH AV","CRL SPRNGS","33076","","","","","","","141408","=""00000EVJSJ""","F 5618 NW 107TH AV","5618 NW 107TH AV","Y"
"5619","NW 107TH AV","CRL SPRNGS","33076","","","","","","","141408","=""00000EVHI3""","F 5635 NW 107TH AV","5619 NW 107TH AV",""
"5634","NW 107TH AV","CRL SPRNGS","33076","","","","","","","141408","=""00000EVLFR""","F 5618 NW 107TH AV","5634 NW 107TH AV",""
"5635","NW 107TH AV","CRL SPRNGS","33076","","","","","","","141408","=""00000EVKTW""","F 5635 NW 107TH AV","5635 NW 107TH AV",""
"5650","NW 107TH AV","CRL SPRNGS","33076","","","","","","","141408","=""00000EVKV7""","F 5618 NW 107TH AV","5650 NW 107TH AV","Y"
"5651","NW 107TH AV","CRL SPRNGS","33076","","","","","","","141408","=""00000EVIB3""","F 5635 NW 107TH AV","5651 NW 107TH AV",""
"5604","NW 108TH TER","CRL SPRNGS","33076","","","","","","","141408","=""00000EVHC4""","F 5614 NW 108TH TER","5604 NW 108TH TER",""
"5614","NW 108TH TER","CRL SPRNGS","33076","","","","","","","141408","=""00000EVNVF""","F 5614 NW 108TH TER","5614 NW 108TH TER",""
"5615","NW 108TH TER","CRL SPRNGS","33076","","","","","","","141408","=""00000EVMDJ""","F 5661 NW 108TH TER","5615 NW 108TH TER",""
"5631","NW 108TH TER","CRL SPRNGS","33076","","","","","","","141408","=""00000EVGLL""","F 5661 NW 108TH TER","5631 NW 108TH TER",""
"5632","NW 108TH TER","CRL SPRNGS","33076","","","","","","","141408","=""00000EVKCY""","F 5614 NW 108TH TER","5632 NW 108TH TER",""
"5645","NW 108TH TER","CRL SPRNGS","33076","","","","","","","141408","=""00000EVH1X""","F 5661 NW 108TH TER","5645 NW 108TH TER",""
"5646","NW 108TH TER","CRL SPRNGS","33076","","","","","","","141408","=""00000EVMM2""","F 5660 NW 108TH TER","5646 NW 108TH TER",""
"5660","NW 108TH TER","CRL SPRNGS","33076","","","","","","","141408","=""00000EVN5L""","F 5660 NW 108TH TER","5660 NW 108TH TER",""
"5661","NW 108TH TER","CRL SPRNGS","33076","","","","","","","141408","=""00000EVJNV""","F 5661 NW 108TH TER","5661 NW 108TH TER",""
"5674","NW 108TH TER","CRL SPRNGS","33076","","","","","","","141408","=""00000EVJKY""","F 5660 NW 108TH TER","5674 NW 108TH TER",""
"5675","NW 108TH TER","CRL SPRNGS","33076","","","","","","","141408","=""00000EVNYY""","F 5661 NW 108TH TER","5675 NW 108TH TER",""
"5688","NW 108TH TER","CRL SPRNGS","33076","","","","","","","141408","=""00000EVGWI""","F 5660 NW 108TH TER","5688 NW 108TH TER",""
"5689","NW 108TH TER","CRL SPRNGS","33076","","","","","","","141408","=""00000EVKZP""","F 5661 NW 108TH TER","5689 NW 108TH TER",""
"5604","NW 108TH WAY","CRL SPRNGS","33076","","","","","","","141408","=""00000EVOMN""","F 5628 NW 108TH WAY","5604 NW 108TH WAY",""
"5605","NW 108TH WAY","CRL SPRNGS","33076","","","","","","","141408","=""00000EVGGG""","F 5613 NW 108TH WAY","5605 NW 108TH WAY","Y"
"5612","NW 108TH WAY","CRL SPRNGS","33076","","","","","","","141408","=""00000EVLQB""","F 5628 NW 108TH WAY","5612 NW 108TH WAY",""
"5613","NW 108TH WAY","CRL SPRNGS","33076","","","","","","","141408","=""00000EVN68""","F 5613 NW 108TH WAY","5613 NW 108TH WAY",""
"5620","NW 108TH WAY","CRL SPRNGS","33076","","","","","","","141408","=""00000EVOXI""","F 5628 NW 108TH WAY","5620 NW 108TH WAY",""
"5628","NW 108TH WAY","CRL SPRNGS","33076","","","","","","","141408","=""00000EVOMO""","F 5628 NW 108TH WAY","5628 NW 108TH WAY",""
"5629","NW 108TH WAY","CRL SPRNGS","33076","","","","","","","141408","=""00000EVIM8""","F 5613 NW 108TH WAY","5629 NW 108TH WAY",""
"5636","NW 108TH WAY","CRL SPRNGS","33076","","","","","","","141408","=""00000EVGOX""","F 5652 NW 108TH WAY","5636 NW 108TH WAY",""
"5637","NW 108TH WAY","CRL SPRNGS","33076","","","","","","","141408","=""00000EVKSW""","F 5613 NW 108TH WAY","5637 NW 108TH WAY",""
"5644","NW 108TH WAY","CRL SPRNGS","33076","","","","","","","141408","=""00000EVGBR""","F 5652 NW 108TH WAY","5644 NW 108TH WAY",""
"5645","NW 108TH WAY","CRL SPRNGS","33076","","","","","","","141408","=""00000EVKS4""","F 5653 NW 108TH WAY","5645 NW 108TH WAY",""
"5652","NW 108TH WAY","CRL SPRNGS","33076","","","","","","","141408","=""00000EVNYA""","F 5652 NW 108TH WAY","5652 NW 108TH WAY",""
"5653","NW 108TH WAY","CRL SPRNGS","33076","","","","","","","141408","=""00000EVK5B""","F 5653 NW 108TH WAY","5653 NW 108TH WAY",""
"5660","NW 108TH WAY","CRL SPRNGS","33076","","","","","","","141408","=""00000EVPCG""","F 5652 NW 108TH WAY","5660 NW 108TH WAY",""
"5661","NW 108TH WAY","CRL SPRNGS","33076","","","","","","","141408","=""00000EVMY7""","F 5653 NW 108TH WAY","5661 NW 108TH WAY",""
"5668","NW 108TH WAY","CRL SPRNGS","33076","","","","","","","141408","=""00000EVLKP""","F 5652 NW 108TH WAY","5668 NW 108TH WAY",""
"5669","NW 108TH WAY","CRL SPRNGS","33076","","","","","","","141408","=""00000EVNJH""","F 5653 NW 108TH WAY","5669 NW 108TH WAY",""
"5183","NW 112TH TER","CRL SPRNGS","33076","","","","","","","141408","=""00000EVFRU""","F 5183 NW 112TH TER","5183 NW 112TH TER",""
"5195","NW 112TH TER","CRL SPRNGS","33076","","","","","","","141408","=""00000EVP2V""","F 5195 NW 112TH TER","5195 NW 112TH TER",""
"5207","NW 112TH TER","CRL SPRNGS","33076","","","","","","","141408","=""00000EVLQS""","F 5207 NW 112TH TER","5207 NW 112TH TER",""
"5213","NW 112TH TER","CRL SPRNGS","33076","","","","","","","141408","=""00000EVI8U""","F 5213.1 NW 112TH TER","5213 NW 112TH TER",""
"5218","NW 112TH TER","CRL SPRNGS","33076","","","","","","","141408","=""00000EVFYL""","F 5218 NW 112TH TER","5218 NW 112TH TER",""
"5225","NW 112TH TER","CRL SPRNGS","33076","","","","","","","141408","=""00000EVHEE""","F 5225 NW 112TH TER","5225 NW 112TH TER",""
"5228","NW 112TH TER","CRL SPRNGS","33076","","","","","","","141408","=""00000EVMM3""","F 5228 NW 112TH TER","5228 NW 112TH TER",""
"5237","NW 112TH TER","CRL SPRNGS","33076","","","","","","","141408","=""00000EVJL3""","F 5237 NW 112TH TER","5237 NW 112TH TER",""
"5238","NW 112TH TER","CRL SPRNGS","33076","","","","","","","141408","=""00000EVOR9""","F 5238 NW 112TH TER","5238 NW 112TH TER",""
"5243","NW 112TH TER","CRL SPRNGS","33076","","","","","","","141408","=""00000EVKPW""","F 5243 NW 112TH TER","5243 NW 112TH TER",""
"5248","NW 112TH TER","CRL SPRNGS","33076","","","","","","","141408","=""00000EVH5Q""","F 5288 NW 112TH TER","5248 NW 112TH TER",""
"5255","NW 112TH TER","CRL SPRNGS","33076","","","","","","","141408","=""00000EVOYB""","F 5255 NW 112TH TER","5255 NW 112TH TER",""
"5258","NW 112TH TER","CRL SPRNGS","33076","","","","","","","141408","=""00000EVK66""","F 5258 NW 112TH TER","5258 NW 112TH TER",""
"5267","NW 112TH TER","CRL SPRNGS","33076","","","","","","","141408","=""00000EVO4D""","F 5267 NW 112TH TER","5267 NW 112TH TER",""
"5268","NW 112TH TER","CRL SPRNGS","33076","","","","","","","141408","=""00000EVNKI""","F 5268 NW 112TH TER","5268 NW 112TH TER",""
"5273","NW 112TH TER","CRL SPRNGS","33076","","","","","","","141408","=""00000EVP4P""","F 5273 NW 112TH TER","5273 NW 112TH TER",""
"5278","NW 112TH TER","CRL SPRNGS","33076","","","","","","","141408","=""00000EVFTP""","F 5278 NW 112TH TER","5278 NW 112TH TER",""
"5285","NW 112TH TER","CRL SPRNGS","33076","","","","","","","141408","=""00000EVJQH""","RF 5285 NW 112TH TER","5285 NW 112TH TER",""
"5288","NW 112TH TER","CRL SPRNGS","33076","","","","","","","141408","=""00000EVP0Z""","F 5288 NW 112TH TER","5288 NW 112TH TER",""
"5297","NW 112TH TER","CRL SPRNGS","33076","","","","","","","141408","=""00000EVHJR""","F 5297 NW 112TH TER","5297 NW 112TH TER",""
"5303","NW 112TH TER","CRL SPRNGS","33076","","","","","","","141408","=""00000EVNSI""","F 5303 NW 112TH TER","5303 NW 112TH TER",""
"5315","NW 112TH TER","CRL SPRNGS","33076","","","","","","","141408","=""00000EVNK3""","F 5315 NW 112TH TER","5315 NW 112TH TER",""
"5327","NW 112TH TER","CRL SPRNGS","33076","","","","","","","141408","=""00000EVKY3""","F 5327 NW 112TH TER","5327 NW 112TH TER","Y"
"5229","NW 112TH WAY","CRL SPRNGS","33076","","","","","","","141408","=""00000EVGXE""","F 5229 NW 112TH WAY","5229 NW 112TH WAY",""
"5230","NW 112TH WAY","CRL SPRNGS","33076","","","","","","","141408","=""00000EVMKR""","F 5230 NW 112TH WAY","5230 NW 112TH WAY",""
"5239","NW 112TH WAY","CRL SPRNGS","33076","","","","","","","141408","=""00000EVIR5""","F 5239 NW 112TH WAY","5239 NW 112TH WAY",""
"5240","NW 112TH WAY","CRL SPRNGS","33076","","","","","","","141408","=""00000EVICB""","F 5240 NW 112TH WAY","5240 NW 112TH WAY",""
"5249","NW 112TH WAY","CRL SPRNGS","33076","","","","","","","141408","=""00000EVKQV""","F 5249 NW 112TH WAY","5249 NW 112TH WAY","Y"
"5250","NW 112TH WAY","CRL SPRNGS","33076","","","","","","","141408","=""00000EVM5W""","F 5250 NW 112TH WAY","5250 NW 112TH WAY",""
"5259","NW 112TH WAY","CRL SPRNGS","33076","","","","","","","141408","=""00000EVJ11""","F 5259 NW 112TH WAY","5259 NW 112TH WAY",""
"5260","NW 112TH WAY","CRL SPRNGS","33076","","","","","","","141408","=""00000EVGBU""","F 5260 NW 112TH WAY","5260 NW 112TH WAY",""
"5269","NW 112TH WAY","CRL SPRNGS","33076","","","","","","","141408","=""00000EVIF6""","F 5269 NW 112TH WAY","5269 NW 112TH WAY",""
"5270","NW 112TH WAY","CRL SPRNGS","33076","","","","","","","141408","=""00000EVFRW""","F 5270 NW 112TH WAY","5270 NW 112TH WAY",""
"5279","NW 112TH WAY","CRL SPRNGS","33076","","","","","","","141408","=""00000EVPDM""","F 5279 NW 112TH WAY","5279 NW 112TH WAY",""
"5280","NW 112TH WAY","CRL SPRNGS","33076","","","","","","","141408","=""00000EVJYJ""","F 5280 NW 112TH WAY","5280 NW 112TH WAY",""
"5289","NW 112TH WAY","CRL SPRNGS","33076","","","","","","","141408","=""00000EVGSK""","F 5289 NW 112TH WAY","5289 NW 112TH WAY",""
"5290","NW 112TH WAY","CRL SPRNGS","33076","","","","","","","141408","=""00000EVKR7""","F 5290 NW 112TH WAY","5290 NW 112TH WAY",""
"5232","NW 113TH AV","CRL SPRNGS","33076","","","","","","","141408","=""00000EVPEE""","F 5232 NW 113TH AV","5232 NW 113TH AV",""
"5241","NW 113TH AV","CRL SPRNGS","33076","","","","","","","141408","=""00000EVIAL""","F 5241 NW 113TH AV","5241 NW 113TH AV",""
"5242","NW 113TH AV","CRL SPRNGS","33076","","","","","","","141408","=""00000EVOXX""","F 5242 NW 113TH AV","5242 NW 113TH AV",""
"5251","NW 113TH AV","CRL SPRNGS","33076","","","","","","","141408","=""00000EVPDC""","F 5251 NW 113TH AV","5251 NW 113TH AV",""
"5252","NW 113TH AV","CRL SPRNGS","33076","","","","","","","141408","=""00000EVLB0""","F 5252 NW 113TH AV","5252 NW 113TH AV",""
"5261","NW 113TH AV","CRL SPRNGS","33076","","","","","","","141408","=""00000EVICL""","F 5261 NW 113TH AV","5261 NW 113TH AV",""
"5262","NW 113TH AV","CRL SPRNGS","33076","","","","","","","141408","=""00000EVICI""","F 5262 NW 113TH AV","5262 NW 113TH AV",""
"5271","NW 113TH AV","CRL SPRNGS","33076","","","","","","","141408","=""00000EVGXP""","F 5271 NW 113TH AV","5271 NW 113TH AV",""
"5272","NW 113TH AV","CRL SPRNGS","33076","","","","","","","141408","=""00000EVMNA""","F 5272 NW 113TH AV","5272 NW 113TH AV",""
"5281","NW 113TH AV","CRL SPRNGS","33076","","","","","","","141408","=""00000EVP4T""","F 5281 NW 113TH AV","5281 NW 113TH AV",""
"5282","NW 113TH AV","CRL SPRNGS","33076","","","","","","","141408","=""00000EVKE2""","F 5282 NW 113TH AV","5282 NW 113TH AV",""
"5291","NW 113TH AV","CRL SPRNGS","33076","","","","","","","141408","=""00000EVGMV""","F 5281 NW 113TH AV","5291 NW 113TH AV",""
"5292","NW 113TH AV","CRL SPRNGS","33076","","","","","","","141408","=""00000EVLDN""","F 5292 NW 113TH AV","5292 NW 113TH AV",""
"11200","NW 52ND ST","CRL SPRNGS","33076","","","","","","","141408","=""00000EVH4Q""","F 11200 NW 52ND ST","11200 NW 52ND ST","Y"
"11210","NW 52ND ST","CRL SPRNGS","33076","","","","","","","141408","=""00000EVH6L""","F 11210 NW 52ND ST","11210 NW 52ND ST",""
"11220","NW 52ND ST","CRL SPRNGS","33076","","","","","","","141408","=""00000EVHTQ""","F 11220 NW 52ND ST","11220 NW 52ND ST",""
"11230","NW 52ND ST","CRL SPRNGS","33076","","","","","","","141408","=""00000EVK45""","F 11230 NW 52ND ST","11230 NW 52ND ST",""
"11240","NW 52ND ST","CRL SPRNGS","33076","","","","","","","141408","=""00000EVNDD""","F 11240 NW 52ND ST","11240 NW 52ND ST",""
"11250","NW 52ND ST","CRL SPRNGS","33076","","","","","","","141408","=""00000EVNIT""","F 11250 NW 52ND ST","11250 NW 52ND ST",""
"11260","NW 52ND ST","CRL SPRNGS","33076","","","","","","","141408","=""00000EVJ7Z""","F 11260 NW 52ND ST","11260 NW 52ND ST",""
"11270","NW 52ND ST","CRL SPRNGS","33076","","","","","","","141408","=""00000EVNVD""","F 11270 NW 52ND ST","11270 NW 52ND ST",""
"11280","NW 52ND ST","CRL SPRNGS","33076","","","","","","","141408","=""00000EVIYX""","F 11280 NW 52ND ST","11280 NW 52ND ST",""
"11290","NW 52ND ST","CRL SPRNGS","33076","","","","","","","141408","=""00000EVOKR""","F 5228 NW 112TH TER","11290 NW 52ND ST",""
"11300","NW 52ND ST","CRL SPRNGS","33076","UNIT","GATE HSE","","","","","141408","=""00000EVO7L""","F 11300 NW 52ND ST","11300 NW 52ND ST UNIT GATE HSE",""
"11300","NW 52ND ST","CRL SPRNGS","33076","","","","","","","141408","=""00000EVH3P""","F 11300 NW 52ND ST","11300 NW 52ND ST",""
"11205","NW 53RD CT","CRL SPRNGS","33076","","","","","","","141408","=""00000EVNY2""","F 11205 NW 53RD CT","11205 NW 53RD CT",""
"11215","NW 53RD CT","CRL SPRNGS","33076","","","","","","","141408","=""00000EVNDH""","F 11215 NW 53RD CT","11215 NW 53RD CT",""
"11225","NW 53RD CT","CRL SPRNGS","33076","","","","","","","141408","=""00000EVJIF""","F 11225 NW 53RD CT","11225 NW 53RD CT",""
"11235","NW 53RD CT","CRL SPRNGS","33076","","","","","","","141408","=""00000EVN92""","F 11235 NW 53RD CT","11235 NW 53RD CT",""
"11245","NW 53RD CT","CRL SPRNGS","33076","","","","","","","141408","=""00000EVHZM""","F 11245 NW 53RD CT","11245 NW 53RD CT",""
"11255","NW 53RD CT","CRL SPRNGS","33076","","","","","","","141408","=""00000EVO3Z""","F 11255 NW 53RD CT","11255 NW 53RD CT",""
"11265","NW 53RD CT","CRL SPRNGS","33076","","","","","","","141408","=""00000EVJJ4""","F 11265 NW 53RD CT","11265 NW 53RD CT",""
"11275","NW 53RD CT","CRL SPRNGS","33076","","","","","","","141408","=""00000EVHO4""","F 11275 NW 53RD CT","11275 NW 53RD CT",""
"11285","NW 53RD CT","CRL SPRNGS","33076","","","","","","","141408","=""00000EVNL3""","F 11285 NW 53RD CT","11285 NW 53RD CT",""
"11295","NW 53RD CT","CRL SPRNGS","33076","","","","","","","141408","=""00000EVOK8""","F 11295 NW 53RD CT","11295 NW 53RD CT",""
"11305","NW 53RD CT","CRL SPRNGS","33076","","","","","","","141408","=""00000EVGBS""","F 11305 NW 53RD CT","11305 NW 53RD CT",""
"10600","NW 56TH CT","CRL SPRNGS","33076","","","","","","","141408","=""00000EVLE4""","F 10620 NW 56TH CT","10600 NW 56TH CT","Y"
"10620","NW 56TH CT","CRL SPRNGS","33076","","","","","","","141408","=""00000EVN6R""","F 10620 NW 56TH CT","10620 NW 56TH CT",""
"10640","NW 56TH CT","CRL SPRNGS","33076","","","","","","","141408","=""00000EVIJG""","F 10620 NW 56TH CT","10640 NW 56TH CT",""
"10660","NW 56TH CT","CRL SPRNGS","33076","","","","","","","141408","=""00000EVN5T""","F 10620 NW 56TH CT","10660 NW 56TH CT",""
"10680","NW 56TH CT","CRL SPRNGS","33076","","","","","","","141408","=""00000EVLF3""","F 10620 NW 56TH CT","10680 NW 56TH CT",""
"10730","NW 56TH CT","CRL SPRNGS","33076","","","","","","","141408","=""00000EVKZ8""","F 10802 NW 56TH CT","10730 NW 56TH CT",""
"10750","NW 56TH CT","CRL SPRNGS","33076","","","","","","","141408","=""00000EVH75""","F 10802 NW 56TH CT","10750 NW 56TH CT",""
"10802","NW 56TH CT","CRL SPRNGS","33076","","","","","","","141408","=""00000EVG4F""","F 10802 NW 56TH CT","10802 NW 56TH CT",""
"10814","NW 56TH CT","CRL SPRNGS","33076","","","","","","","141408","=""00000EVLD4""","F 10802 NW 56TH CT","10814 NW 56TH CT",""
"10826","NW 56TH CT","CRL SPRNGS","33076","","","","","","","141408","=""00000EVL6B""","F 10802 NW 56TH CT","10826 NW 56TH CT",""
"10838","NW 56TH CT","CRL SPRNGS","33076","","","","","","","141408","=""00000EVOCX""","F 10802 NW 56TH CT","10838 NW 56TH CT",""
"10850","NW 56TH CT","CRL SPRNGS","33076","","","","","","","141408","=""00000EVGRC""","F 10802 NW 56TH CT","10850 NW 56TH CT",""
"10862","NW 56TH CT","CRL SPRNGS","33076","","","","","","","141408","=""00000EVL56""","F 10802 NW 56TH CT","10862 NW 56TH CT",""
"11500","WESTVIEW DR","CRL SPRNGS","33076","UNIT","EAGLERDG E","","","","","141408","=""00000EVJDJ""","MR 11500 WESTVIEW DR","11500 WESTVIEW DR UNIT EAGLERDG E","Y"
"11500","WESTVIEW DR","CRL SPRNGS","33076","","","","","","","141408","=""00000EVLUS""","MR 11500 WESTVIEW DR","11500 WESTVIEW DR",""
